{"type":"FeatureCollection","features":[{"type":"Feature","properties":{"name":"St Thomastown Post Office","pincode":560084,"officetype":"B.O","divisionname":"Bangalore East","regionname":"Bangalore HQ","taluk":"Bangalore North","district":"Bangalore"},"geometry":{"type":"Point","coordinates":[77.6230883,13.0059301]}},{"type":"Feature","properties":{"name":"IIMB post office - Bilekahalli","pincode":560076,"officetype":"B.O","divisionname":"Bangalore South","regionname":"Bangalore HQ","taluk":"Bangalore South","district":"Bangalore"},"geometry":{"type":"Point","coordinates":[77.6008383,12.8980535]}},{"type":"Feature","properties":{"name":"Soluru","pincode":562127,"officetype":"B.O","divisionname":"Channapatna","regionname":"Bangalore HQ","taluk":"Magadi","district":"Bangalore Rural"},"geometry":{"type":"Point","coordinates":[77.244551,13.0719814]}},{"type":"Feature","properties":{"name":"Attibele","pincode":562107,"officetype":"B.O","divisionname":"Channapatna","regionname":"Bangalore HQ","taluk":"Anekal","district":"Bangalore"},"geometry":{"type":"Point","coordinates":[77.7703596,12.778318]}},{"type":"Feature","properties":{"name":"Magadi","pincode":562120,"officetype":"B.O","divisionname":"Channapatna","regionname":"Bangalore HQ","taluk":"Magadi","district":"Bangalore"},"geometry":{"type":"Point","coordinates":[77.2244073,12.955297]}},{"type":"Feature","properties":{"name":"Vijayapura","pincode":562135,"officetype":"B.O","divisionname":"Channapatna","regionname":"Bangalore HQ","taluk":"Devanahalli","district":"Bangalore Rural"},"geometry":{"type":"Point","coordinates":[77.8028933,13.2964056]}},{"type":"Feature","properties":{"name":"Anekal","pincode":562106,"officetype":"B.O","divisionname":"Channapatna","regionname":"Bangalore HQ","taluk":"Anekal","district":"Bangalore"},"geometry":{"type":"Point","coordinates":[77.6993972,12.7086373]}},{"type":"Feature","properties":{"name":"Doddabelavangala","pincode":561204,"officetype":"B.O","divisionname":"Channapatna","regionname":"Bangalore HQ","taluk":"Dodballapura","district":"Bangalore Rural"},"geometry":{"type":"Point","coordinates":[77.4225254,13.2890336]}},{"type":"Feature","properties":{"name":"Kanakapura","pincode":562117,"officetype":"B.O","divisionname":"Channapatna","regionname":"Bangalore HQ","taluk":"Kanakapura","district":"Ramanagar"},"geometry":{"type":"Point","coordinates":[77.4199095,12.5450268]}},{"type":"Feature","properties":{"name":"Dabaspete","pincode":562111,"officetype":"B.O","divisionname":"Channapatna","regionname":"Bangalore HQ","taluk":"Nelamangala","district":"Bangalore Rural"},"geometry":{"type":"Point","coordinates":[77.2423329,13.2273906]}},{"type":"Feature","properties":{"name":"Doddaballapur","pincode":561203,"officetype":"B.O","divisionname":"Channapatna","regionname":"Bangalore HQ","taluk":"Dod Ballapur","district":"Bangalore Rural"},"geometry":{"type":"Point","coordinates":[77.5420587,13.294591]}},{"type":"Feature","properties":{"name":"Sarjapura","pincode":562125,"officetype":"B.O","divisionname":"Channapatna","regionname":"Bangalore HQ","taluk":"Anekal","district":"Bangalore"},"geometry":{"type":"Point","coordinates":[77.7861352,12.8600866]}},{"type":"Feature","properties":{"name":"Satanuru","pincode":562126,"officetype":"B.O","divisionname":"Channapatna","regionname":"Bangalore HQ","taluk":"Kanakapura","district":"Ramanagar"},"geometry":{"type":"Point","coordinates":[77.3210491,12.4517062]}},{"type":"Feature","properties":{"name":"Honganuru","pincode":562138,"officetype":"B.O","divisionname":"Channapatna","regionname":"Bangalore HQ","taluk":"Channapatna","district":"Ramanagar"},"geometry":{"type":"Point","coordinates":[77.2176933,12.6045178]}},{"type":"Feature","properties":{"name":"Hoskote","pincode":562114,"officetype":"B.O","divisionname":"Channapatna","regionname":"Bangalore HQ","taluk":"Hoskote","district":"Bangalore Rural"},"geometry":{"type":"Point","coordinates":[77.789957,13.0764491]}},{"type":"Feature","properties":{"name":"Bilagi","pincode":587116,"officetype":"B.O","divisionname":"Bagalkot","regionname":"North Karnataka","taluk":"Bilgi","district":"Bagalkot"},"geometry":{"type":"Point","coordinates":[75.6190861,16.3464175]}},{"type":"Feature","properties":{"name":"Ilakal","pincode":587125,"officetype":"B.O","divisionname":"Bagalkot","regionname":"North Karnataka","taluk":"Hungund","district":"Bagalkot"},"geometry":{"type":"Point","coordinates":[76.11564,15.9598085]}},{"type":"Feature","properties":{"name":"Lokapura","pincode":587122,"officetype":"B.O","divisionname":"Bagalkot","regionname":"North Karnataka","taluk":"Mudhol","district":"Bagalkot"},"geometry":{"type":"Point","coordinates":[75.3685939,16.1627427]}},{"type":"Feature","properties":{"name":"Teradala","pincode":587315,"officetype":"B.O","divisionname":"Bagalkot","regionname":"North Karnataka","taluk":"Jamkhandi","district":"Bagalkot"},"geometry":{"type":"Point","coordinates":[75.0468551,16.4936178]}},{"type":"Feature","properties":{"name":"Belur","pincode":587114,"officetype":"B.O","divisionname":"Bagalkot","regionname":"North Karnataka","taluk":"Badami","district":"Bagalkot"},"geometry":{"type":"Point","coordinates":[75.7527795,15.8475579]}},{"type":"Feature","properties":{"name":"Mahalingapura","pincode":587312,"officetype":"B.O","divisionname":"Bagalkot","regionname":"North Karnataka","taluk":"Mudhol","district":"Bagalkot"},"geometry":{"type":"Point","coordinates":[75.1141385,16.3866581]}},{"type":"Feature","properties":{"name":"Mudhol","pincode":587313,"officetype":"B.O","divisionname":"Bagalkot","regionname":"North Karnataka","taluk":"Mudhol","district":"Bagalkot"},"geometry":{"type":"Point","coordinates":[75.2870794,16.3338591]}},{"type":"Feature","properties":{"name":"Galagali","pincode":587117,"officetype":"B.O","divisionname":"Bagalkot","regionname":"North Karnataka","taluk":"Bijapur","district":"Bijapur(KAR)"},"geometry":{"type":"Point","coordinates":[75.4376016,16.4166757]}},{"type":"Feature","properties":{"name":"Kulageri","pincode":587155,"officetype":"B.O","divisionname":"Bagalkot","regionname":"North Karnataka","taluk":"Badami","district":"Bagalkot"},"geometry":{"type":"Point","coordinates":[75.5118277,15.9043598]}},{"type":"Feature","properties":{"name":"Hunagund","pincode":587118,"officetype":"B.O","divisionname":"Bagalkot","regionname":"North Karnataka","taluk":"Hungund","district":"Bagalkot"},"geometry":{"type":"Point","coordinates":[76.0603359,16.0618821]}},{"type":"Feature","properties":{"name":"Gudura","pincode":587202,"officetype":"B.O","divisionname":"Bagalkot","regionname":"North Karnataka","taluk":"Hungund","district":"Bagalkot"},"geometry":{"type":"Point","coordinates":[75.9146111,15.9393613]}},{"type":"Feature","properties":{"name":"Kaladagi","pincode":587204,"officetype":"B.O","divisionname":"Bagalkot","regionname":"North Karnataka","taluk":"Bagalkot","district":"Bagalkot"},"geometry":{"type":"Point","coordinates":[75.4996999,16.2071441]}},{"type":"Feature","properties":{"name":"Rabakavi Banahatti","pincode":587314,"officetype":"B.O","divisionname":"Bagalkot","regionname":"North Karnataka","taluk":"Jamkhandi","district":"Bagalkot"},"geometry":{"type":"Point","coordinates":[75.1231296,16.4784975]}},{"type":"Feature","properties":{"name":"Nandagada","pincode":591120,"officetype":"B.O","divisionname":"Belgaum","regionname":"North Karnataka","taluk":"Londa","district":"Belgaum"},"geometry":{"type":"Point","coordinates":[74.569272,15.576672]}},{"type":"Feature","properties":{"name":"Salahalli","pincode":591130,"officetype":"B.O","divisionname":"Belgaum","regionname":"North Karnataka","taluk":"Ramdurg","district":"Belgaum"},"geometry":{"type":"Point","coordinates":[75.2310613,16.0707115]}},{"type":"Feature","properties":{"name":"Nesaragi","pincode":591121,"officetype":"B.O","divisionname":"Belgaum","regionname":"North Karnataka","taluk":"Bailhongal","district":"Belgaum"},"geometry":{"type":"Point","coordinates":[74.7757344,15.9078573]}},{"type":"Feature","properties":{"name":"Savadatti","pincode":591126,"officetype":"B.O","divisionname":"Belgaum","regionname":"North Karnataka","taluk":"Saundatti","district":"Belgaum"},"geometry":{"type":"Point","coordinates":[75.1174834,15.7671818]}},{"type":"Feature","properties":{"name":"Yaragatti","pincode":591129,"officetype":"B.O","divisionname":"Belgaum","regionname":"North Karnataka","taluk":"Saundatti","district":"Belgaum"},"geometry":{"type":"Point","coordinates":[75.0242,15.9684]}},{"type":"Feature","properties":{"name":"Khanapur","pincode":591302,"officetype":"B.O","divisionname":"Belgaum","regionname":"North Karnataka","taluk":"Khanapur","district":"Belgaum"},"geometry":{"type":"Point","coordinates":[74.5088917,15.639879]}},{"type":"Feature","properties":{"name":"Bailahongala","pincode":591102,"officetype":"B.O","divisionname":"Belgaum","regionname":"North Karnataka","taluk":"Bailhongal","district":"Belgaum"},"geometry":{"type":"Point","coordinates":[74.8585,15.8138]}},{"type":"Feature","properties":{"name":"Kitturu","pincode":591115,"officetype":"B.O","divisionname":"Belgaum","regionname":"North Karnataka","taluk":"Bailhongal","district":"Belgaum"},"geometry":{"type":"Point","coordinates":[74.787516,15.5958629]}},{"type":"Feature","properties":{"name":"Bidi","pincode":591106,"officetype":"B.O","divisionname":"Belgaum","regionname":"North Karnataka","taluk":"Khanapur","district":"Belgaum"},"geometry":{"type":"Point","coordinates":[74.6537456,15.5659556]}},{"type":"Feature","properties":{"name":"Sambra","pincode":591124,"officetype":"B.O","divisionname":"Belgaum","regionname":"North Karnataka","taluk":"Belgaum","district":"Belgaum"},"geometry":{"type":"Point","coordinates":[74.6164669,15.8702726]}},{"type":"Feature","properties":{"name":"Harapanahalli","pincode":583131,"officetype":"B.O","divisionname":"Bellary","regionname":"North Karnataka","taluk":"","district":"Davangere"},"geometry":{"type":"Point","coordinates":[75.988032,14.7880219]}},{"type":"Feature","properties":{"name":"Kudligi","pincode":583135,"officetype":"B.O","divisionname":"Bellary","regionname":"North Karnataka","taluk":"Kudligi","district":"Bellary"},"geometry":{"type":"Point","coordinates":[76.3844473,14.9050763]}},{"type":"Feature","properties":{"name":"Kotturu","pincode":583134,"officetype":"B.O","divisionname":"Bellary","regionname":"North Karnataka","taluk":"Kudligi","district":"Bellary"},"geometry":{"type":"Point","coordinates":[76.2252832,14.8243692]}},{"type":"Feature","properties":{"name":"Hagaribommanahalli","pincode":583212,"officetype":"B.O","divisionname":"Bellary","regionname":"North Karnataka","taluk":"Hb Halli","district":"Bellary"},"geometry":{"type":"Point","coordinates":[76.2125243,15.0485388]}},{"type":"Feature","properties":{"name":"Holalu","pincode":583217,"officetype":"B.O","divisionname":"Bellary","regionname":"North Karnataka","taluk":"Huvinahadagali","district":"Bellary"},"geometry":{"type":"Point","coordinates":[75.7129552,14.8404105]}},{"type":"Feature","properties":{"name":"Siraguppa","pincode":583121,"officetype":"B.O","divisionname":"Bellary","regionname":"North Karnataka","taluk":"Siruguppa","district":"Bellary"},"geometry":{"type":"Point","coordinates":[76.8939231,15.6336064]}},{"type":"Feature","properties":{"name":"Sanduru","pincode":583119,"officetype":"B.O","divisionname":"Bellary","regionname":"North Karnataka","taluk":"Sandur","district":"Bellary"},"geometry":{"type":"Point","coordinates":[76.5435934,15.084389]}},{"type":"Feature","properties":{"name":"Teligi","pincode":583137,"officetype":"B.O","divisionname":"Bellary","regionname":"North Karnataka","taluk":"Harapanahalli","district":"Davangere"},"geometry":{"type":"Point","coordinates":[75.8921504,14.6525936]}},{"type":"Feature","properties":{"name":"Kudutini","pincode":583115,"officetype":"B.O","divisionname":"Bellary","regionname":"North Karnataka","taluk":"Bellary","district":"Bellary"},"geometry":{"type":"Point","coordinates":[76.7584514,15.1968735]}},{"type":"Feature","properties":{"name":"Tekkalakote","pincode":583122,"officetype":"B.O","divisionname":"Bellary","regionname":"North Karnataka","taluk":"Siruguppa","district":"Bellary"},"geometry":{"type":"Point","coordinates":[76.8772225,15.5337852]}},{"type":"Feature","properties":{"name":"Hosahalli","pincode":583218,"officetype":"B.O","divisionname":"Bellary","regionname":"North Karnataka","taluk":"Kudligi","district":"Bellary"},"geometry":{"type":"Point","coordinates":[76.4675766,14.6481972]}},{"type":"Feature","properties":{"name":"Tambrahalli","pincode":583224,"officetype":"B.O","divisionname":"Bellary","regionname":"North Karnataka","taluk":"Hb Halli","district":"Bellary"},"geometry":{"type":"Point","coordinates":[76.1539655,15.1526707]}},{"type":"Feature","properties":{"name":"Huvina Hadagali","pincode":583219,"officetype":"B.O","divisionname":"Bellary","regionname":"North Karnataka","taluk":"Huvinahadagali","district":"Bellary"},"geometry":{"type":"Point","coordinates":[75.9328,15.0212]}},{"type":"Feature","properties":{"name":"Ittagi","pincode":583220,"officetype":"B.O","divisionname":"Bellary","regionname":"North Karnataka","taluk":"Hagaribommanahalli","district":"Bellary"},"geometry":{"type":"Point","coordinates":[76.0920437,14.9515483]}},{"type":"Feature","properties":{"name":"Gudekote","pincode":583130,"officetype":"B.O","divisionname":"Bellary","regionname":"North Karnataka","taluk":"Kudligi","district":"Bellary"},"geometry":{"type":"Point","coordinates":[76.6268545,14.8315931]}},{"type":"Feature","properties":{"name":"Sirigeri","pincode":583120,"officetype":"B.O","divisionname":"Bellary","regionname":"North Karnataka","taluk":"Siruguppa","district":"Bellary"},"geometry":{"type":"Point","coordinates":[76.8359863,15.4380202]}},{"type":"Feature","properties":{"name":"Toranagallu","pincode":583123,"officetype":"B.O","divisionname":"Bellary","regionname":"North Karnataka","taluk":"Sandur","district":"Bellary"},"geometry":{"type":"Point","coordinates":[76.6780987,15.1959663]}},{"type":"Feature","properties":{"name":"Kampli","pincode":583132,"officetype":"B.O","divisionname":"Bellary","regionname":"North Karnataka","taluk":"Hospet","district":"Bellary"},"geometry":{"type":"Point","coordinates":[76.6082302,15.4059512]}},{"type":"Feature","properties":{"name":"Hirehadagalli","pincode":583216,"officetype":"B.O","divisionname":"Bellary","regionname":"North Karnataka","taluk":"Huvinahadagali","district":"Bellary"},"geometry":{"type":"Point","coordinates":[75.8319224,14.9257704]}},{"type":"Feature","properties":{"name":"Yeshwantanagara","pincode":583124,"officetype":"B.O","divisionname":"Bellary","regionname":"North Karnataka","taluk":"Sandur","district":"Bellary"},"geometry":{"type":"Point","coordinates":[76.4980548,15.0440557]}},{"type":"Feature","properties":{"name":"Kamalapura","pincode":583221,"officetype":"B.O","divisionname":"Bellary","regionname":"North Karnataka","taluk":"Hospet","district":"Bellary"},"geometry":{"type":"Point","coordinates":[76.4763997,15.3046906]}},{"type":"Feature","properties":{"name":"Hampi","pincode":583239,"officetype":"B.O","divisionname":"Bellary","regionname":"North Karnataka","taluk":"Hospet","district":"Bellary"},"geometry":{"type":"Point","coordinates":[76.4606199,15.3359769]}},{"type":"Feature","properties":{"name":"Hulasura","pincode":585416,"officetype":"B.O","divisionname":"Bidar","regionname":"North Karnataka","taluk":"Bhalki","district":"Bidar"},"geometry":{"type":"Point","coordinates":[77.0110669,18.0184403]}},{"type":"Feature","properties":{"name":"Bhalki","pincode":585328,"officetype":"B.O","divisionname":"Bidar","regionname":"North Karnataka","taluk":"Bhalki","district":"Bidar"},"geometry":{"type":"Point","coordinates":[77.2167579,18.0488267]}},{"type":"Feature","properties":{"name":"Manthala","pincode":585419,"officetype":"B.O","divisionname":"Bidar","regionname":"North Karnataka","taluk":"Basavakalyan","district":"Bidar"},"geometry":{"type":"Point","coordinates":[76.8575542,17.8230813]}},{"type":"Feature","properties":{"name":"Santhapura","pincode":585421,"officetype":"B.O","divisionname":"Bidar","regionname":"North Karnataka","taluk":"Aurad (b)","district":"Bidar"},"geometry":{"type":"Point","coordinates":[77.4407909,18.1618292]}},{"type":"Feature","properties":{"name":"Rajeshwara","pincode":585331,"officetype":"B.O","divisionname":"Bidar","regionname":"North Karnataka","taluk":"Basavakalyan","district":"Bidar"},"geometry":{"type":"Point","coordinates":[77.0451667,17.7945208]}},{"type":"Feature","properties":{"name":"Chittaguppa","pincode":585412,"officetype":"B.O","divisionname":"Bidar","regionname":"North Karnataka","taluk":"Humnabad","district":"Bidar"},"geometry":{"type":"Point","coordinates":[77.2161692,17.6985069]}},{"type":"Feature","properties":{"name":"Basavakalyan","pincode":585327,"officetype":"B.O","divisionname":"Bidar","regionname":"North Karnataka","taluk":"Basavakalyan","district":"Bidar"},"geometry":{"type":"Point","coordinates":[76.9504246,17.8759286]}},{"type":"Feature","properties":{"name":"Kamalanagara","pincode":585417,"officetype":"B.O","divisionname":"Bidar","regionname":"North Karnataka","taluk":"Aurad (b)","district":"Bidar"},"geometry":{"type":"Point","coordinates":[77.1803554,18.2335739]}},{"type":"Feature","properties":{"name":"Atharga","pincode":586112,"officetype":"B.O","divisionname":"Bijapur","regionname":"North Karnataka","taluk":"Indi","district":"Bijapur(KAR)"},"geometry":{"type":"Point","coordinates":[75.8854156,16.9871578]}},{"type":"Feature","properties":{"name":"Babaleshwara","pincode":586113,"officetype":"B.O","divisionname":"Bijapur","regionname":"North Karnataka","taluk":"Bijapur","district":"Bijapur(KAR)"},"geometry":{"type":"Point","coordinates":[75.5741874,16.6684966]}},{"type":"Feature","properties":{"name":"Basavana Bagevadi","pincode":586203,"officetype":"B.O","divisionname":"Bijapur","regionname":"North Karnataka","taluk":"B.bagewadi","district":"Bijapur(KAR)"},"geometry":{"type":"Point","coordinates":[75.9747727,16.5741923]}},{"type":"Feature","properties":{"name":"Talikote","pincode":586214,"officetype":"B.O","divisionname":"Bijapur","regionname":"North Karnataka","taluk":"Muddebihal","district":"Bijapur(KAR)"},"geometry":{"type":"Point","coordinates":[76.311706,16.474468]}},{"type":"Feature","properties":{"name":"Horti","pincode":586117,"officetype":"B.O","divisionname":"Bijapur","regionname":"North Karnataka","taluk":"B.bagewadi","district":"Bijapur(KAR)"},"geometry":{"type":"Point","coordinates":[75.7868602,17.1170282]}},{"type":"Feature","properties":{"name":"Managoli","pincode":586122,"officetype":"B.O","divisionname":"Bijapur","regionname":"North Karnataka","taluk":"Indi","district":"Bijapur(KAR)"},"geometry":{"type":"Point","coordinates":[75.8127383,16.6523998]}},{"type":"Feature","properties":{"name":"Devara Hipparagi","pincode":586115,"officetype":"B.O","divisionname":"Bijapur","regionname":"North Karnataka","taluk":"Sindgi","district":"Bijapur(KAR)"},"geometry":{"type":"Point","coordinates":[76.0649054,16.8155102]}},{"type":"Feature","properties":{"name":"Sindagi","pincode":586128,"officetype":"B.O","divisionname":"Bijapur","regionname":"North Karnataka","taluk":"Sindgi","district":"Bijapur(KAR)"},"geometry":{"type":"Point","coordinates":[76.2350305,16.9194778]}},{"type":"Feature","properties":{"name":"Salotagi","pincode":586217,"officetype":"B.O","divisionname":"Bijapur","regionname":"North Karnataka","taluk":"Indi","district":"Bijapur(KAR)"},"geometry":{"type":"Point","coordinates":[76.0201501,17.1321104]}},{"type":"Feature","properties":{"name":"Nalatavada","pincode":586124,"officetype":"B.O","divisionname":"Bijapur","regionname":"North Karnataka","taluk":"Muddebihal","district":"Bijapur(KAR)"},"geometry":{"type":"Point","coordinates":[76.2927824,16.2456499]}},{"type":"Feature","properties":{"name":"Muddebihala","pincode":586212,"officetype":"B.O","divisionname":"Bijapur","regionname":"North Karnataka","taluk":"Muddebihal","district":"Bijapur(KAR)"},"geometry":{"type":"Point","coordinates":[76.1339556,16.3351078]}},{"type":"Feature","properties":{"name":"Moratagi","pincode":586123,"officetype":"B.O","divisionname":"Bijapur","regionname":"North Karnataka","taluk":"Sindgi","district":"Bijapur(KAR)"},"geometry":{"type":"Point","coordinates":[76.4171736,17.0065913]}},{"type":"Feature","properties":{"name":"Vijayapura","pincode":586101,"officetype":"B.O","divisionname":"Bijapur","regionname":"North Karnataka","taluk":"Bijapur","district":"Bijapur(KAR)"},"geometry":{"type":"Point","coordinates":[75.7201051,16.8269245]}},{"type":"Feature","properties":{"name":"Huvina Hipparagi","pincode":586208,"officetype":"B.O","divisionname":"Bijapur","regionname":"North Karnataka","taluk":"B.bagewadi","district":"Bijapur(KAR)"},"geometry":{"type":"Point","coordinates":[76.0758061,16.5567894]}},{"type":"Feature","properties":{"name":"Kolahara","pincode":586210,"officetype":"B.O","divisionname":"Bijapur","regionname":"North Karnataka","taluk":"Basavana Bagevadi","district":"Bijapur(KAR)"},"geometry":{"type":"Point","coordinates":[75.695105,16.4719099]}},{"type":"Feature","properties":{"name":"Alamela","pincode":586202,"officetype":"B.O","divisionname":"Bijapur","regionname":"North Karnataka","taluk":"Sindgi","district":"Bijapur(KAR)"},"geometry":{"type":"Point","coordinates":[76.2191287,17.0931024]}},{"type":"Feature","properties":{"name":"Nippani","pincode":591237,"officetype":"B.O","divisionname":"Chikodi","regionname":"North Karnataka","taluk":"Chikodi","district":"Belgaum"},"geometry":{"type":"Point","coordinates":[74.3850372,16.4029882]}},{"type":"Feature","properties":{"name":"Rayabaga","pincode":591317,"officetype":"B.O","divisionname":"Chikodi","regionname":"North Karnataka","taluk":"Raibag","district":"Belgaum"},"geometry":{"type":"Point","coordinates":[74.7741341,16.4916168]}},{"type":"Feature","properties":{"name":"Saundalaga","pincode":591241,"officetype":"B.O","divisionname":"Chikodi","regionname":"North Karnataka","taluk":"Chikodi","district":"Belgaum"},"geometry":{"type":"Point","coordinates":[74.3507001,16.4739018]}},{"type":"Feature","properties":{"name":"Ankali","pincode":591213,"officetype":"B.O","divisionname":"Chikodi","regionname":"North Karnataka","taluk":"Chikodi","district":"Belgaum"},"geometry":{"type":"Point","coordinates":[74.6732625,16.5425256]}},{"type":"Feature","properties":{"name":"Shiraguppi","pincode":591242,"officetype":"B.O","divisionname":"Chikodi","regionname":"North Karnataka","taluk":"Athni","district":"Belgaum"},"geometry":{"type":"Point","coordinates":[74.7146268,16.6163626]}},{"type":"Feature","properties":{"name":"Telasanga","pincode":591265,"officetype":"B.O","divisionname":"Chikodi","regionname":"North Karnataka","taluk":"Athni","district":"Belgaum"},"geometry":{"type":"Point","coordinates":[75.3393362,16.7937622]}},{"type":"Feature","properties":{"name":"Shamanewadi","pincode":591214,"officetype":"B.O","divisionname":"Chikodi","regionname":"North Karnataka","taluk":"Chikodi","district":"Belgaum"},"geometry":{"type":"Point","coordinates":[74.4981451,16.5404877]}},{"type":"Feature","properties":{"name":"Sadalaga","pincode":591239,"officetype":"B.O","divisionname":"Chikodi","regionname":"North Karnataka","taluk":"Chikodi","district":"Belgaum"},"geometry":{"type":"Point","coordinates":[74.531674,16.5560238]}},{"type":"Feature","properties":{"name":"Dhummawada","pincode":580114,"officetype":"B.O","divisionname":"Dharwad","regionname":"North Karnataka","taluk":"Kalghatgi","district":"Dharwad"},"geometry":{"type":"Point","coordinates":[75.0101072,15.3177061]}},{"type":"Feature","properties":{"name":"Kalaghatagi","pincode":581204,"officetype":"B.O","divisionname":"Dharwad","regionname":"North Karnataka","taluk":"Kalgahtgi","district":"Dharwad"},"geometry":{"type":"Point","coordinates":[74.9718465,15.1818921]}},{"type":"Feature","properties":{"name":"Annigeri","pincode":582201,"officetype":"B.O","divisionname":"Dharwad","regionname":"North Karnataka","taluk":"Navalgund","district":"Dharwad"},"geometry":{"type":"Point","coordinates":[75.4333351,15.4260116]}},{"type":"Feature","properties":{"name":"Navalgund","pincode":582208,"officetype":"B.O","divisionname":"Dharwad","regionname":"North Karnataka","taluk":"Navalgund","district":"Dharwad"},"geometry":{"type":"Point","coordinates":[75.3538481,15.5582208]}},{"type":"Feature","properties":{"name":"Garag","pincode":581105,"officetype":"B.O","divisionname":"Dharwad","regionname":"North Karnataka","taluk":"Dharwad","district":"Dharwad"},"geometry":{"type":"Point","coordinates":[74.9311069,15.5740305]}},{"type":"Feature","properties":{"name":"Morab","pincode":580112,"officetype":"B.O","divisionname":"Dharwad","regionname":"North Karnataka","taluk":"Dharwad","district":"Dharwad"},"geometry":{"type":"Point","coordinates":[75.157492,15.5830019]}},{"type":"Feature","properties":{"name":"Lakshmeshwar","pincode":582116,"officetype":"B.O","divisionname":"Gadag","regionname":"North Karnataka","taluk":"Shirahatti","district":"Gadag"},"geometry":{"type":"Point","coordinates":[75.4719194,15.12672]}},{"type":"Feature","properties":{"name":"Mundaragi","pincode":582118,"officetype":"B.O","divisionname":"Gadag","regionname":"North Karnataka","taluk":"Mundargi","district":"Gadag"},"geometry":{"type":"Point","coordinates":[75.8840183,15.2051817]}},{"type":"Feature","properties":{"name":"Belahatti","pincode":582112,"officetype":"B.O","divisionname":"Gadag","regionname":"North Karnataka","taluk":"Shirahatti","district":"Gadag"},"geometry":{"type":"Point","coordinates":[75.6465299,15.0809813]}},{"type":"Feature","properties":{"name":"Ginigera","pincode":583228,"officetype":"B.O","divisionname":"Gadag","regionname":"North Karnataka","taluk":"Koppal","district":"Koppal"},"geometry":{"type":"Point","coordinates":[76.248793,15.3504116]}},{"type":"Feature","properties":{"name":"Yalaburga","pincode":583236,"officetype":"B.O","divisionname":"Gadag","regionname":"North Karnataka","taluk":"Yelburga","district":"Koppal"},"geometry":{"type":"Point","coordinates":[76.0135986,15.6155852]}},{"type":"Feature","properties":{"name":"Gajendragad","pincode":582114,"officetype":"B.O","divisionname":"Gadag","regionname":"North Karnataka","taluk":"Ron","district":"Gadag"},"geometry":{"type":"Point","coordinates":[75.9694744,15.7356613]}},{"type":"Feature","properties":{"name":"Gadag","pincode":582209,"officetype":"B.O","divisionname":"Gadag","regionname":"North Karnataka","taluk":"Gadag","district":"Gadag"},"geometry":{"type":"Point","coordinates":[75.7349912,15.6996944]}},{"type":"Feature","properties":{"name":"Gangawati","pincode":583227,"officetype":"B.O","divisionname":"Gadag","regionname":"North Karnataka","taluk":"Gangavathi","district":"Koppal"},"geometry":{"type":"Point","coordinates":[76.5327743,15.4315062]}},{"type":"Feature","properties":{"name":"Betageri","pincode":582102,"officetype":"B.O","divisionname":"Gadag","regionname":"North Karnataka","taluk":"Ron","district":"Gadag"},"geometry":{"type":"Point","coordinates":[75.6446076,15.4446414]}},{"type":"Feature","properties":{"name":"Shirahatti","pincode":582120,"officetype":"B.O","divisionname":"Gadag","regionname":"North Karnataka","taluk":"Shirahatti","district":"Gadag"},"geometry":{"type":"Point","coordinates":[75.5802621,15.2343897]}},{"type":"Feature","properties":{"name":"Sudi","pincode":582211,"officetype":"B.O","divisionname":"Gadag","regionname":"North Karnataka","taluk":"Ron","district":"Gadag"},"geometry":{"type":"Point","coordinates":[75.8672062,15.7323276]}},{"type":"Feature","properties":{"name":"Kukkanura","pincode":583232,"officetype":"B.O","divisionname":"Gadag","regionname":"North Karnataka","taluk":"Yelburga","district":"Koppal"},"geometry":{"type":"Point","coordinates":[75.9934934,15.4902753]}},{"type":"Feature","properties":{"name":"Mulagund","pincode":582117,"officetype":"B.O","divisionname":"Gadag","regionname":"North Karnataka","taluk":"Shirahatti","district":"Gadag"},"geometry":{"type":"Point","coordinates":[75.5222371,15.2815173]}},{"type":"Feature","properties":{"name":"Dambala","pincode":582113,"officetype":"B.O","divisionname":"Gadag","regionname":"North Karnataka","taluk":"Mundargi","district":"Gadag"},"geometry":{"type":"Point","coordinates":[75.7739126,15.2962765]}},{"type":"Feature","properties":{"name":"Naregalla","pincode":582119,"officetype":"B.O","divisionname":"Gadag","regionname":"North Karnataka","taluk":"","district":"Gadag"},"geometry":{"type":"Point","coordinates":[75.8078454,15.5736978]}},{"type":"Feature","properties":{"name":"Hukkeri","pincode":591309,"officetype":"B.O","divisionname":"Gokak","regionname":"North Karnataka","taluk":"Hukeri","district":"Belgaum"},"geometry":{"type":"Point","coordinates":[74.6029767,16.230857]}},{"type":"Feature","properties":{"name":"Kanagala","pincode":591225,"officetype":"B.O","divisionname":"Gokak","regionname":"North Karnataka","taluk":"Hukeri","district":"Belgaum"},"geometry":{"type":"Point","coordinates":[74.427637,16.3205911]}},{"type":"Feature","properties":{"name":"Sankeshwara","pincode":591313,"officetype":"B.O","divisionname":"Gokak","regionname":"North Karnataka","taluk":"Hukeri","district":"Belgaum"},"geometry":{"type":"Point","coordinates":[74.4860876,16.2579879]}},{"type":"Feature","properties":{"name":"Bagewadi","pincode":591305,"officetype":"B.O","divisionname":"Gokak","regionname":"North Karnataka","taluk":"Hukeri","district":"Belgaum"},"geometry":{"type":"Point","coordinates":[74.721498,16.300076]}},{"type":"Feature","properties":{"name":"Yadawada","pincode":591136,"officetype":"B.O","divisionname":"Gokak","regionname":"North Karnataka","taluk":"Gokak","district":"Belgaum"},"geometry":{"type":"Point","coordinates":[75.1810043,16.242796]}},{"type":"Feature","properties":{"name":"Gokak","pincode":591307,"officetype":"B.O","divisionname":"Gokak","regionname":"North Karnataka","taluk":"Gokak","district":"Belgaum"},"geometry":{"type":"Point","coordinates":[74.8224338,16.1693033]}},{"type":"Feature","properties":{"name":"Munavali","pincode":591227,"officetype":"B.O","divisionname":"Gokak","regionname":"North Karnataka","taluk":"Gokak","district":"Belgaum"},"geometry":{"type":"Point","coordinates":[75.1196257,15.8523222]}},{"type":"Feature","properties":{"name":"Afzalpur","pincode":585301,"officetype":"B.O","divisionname":"Gulbarga","regionname":"North Karnataka","taluk":"Afjalpur","district":"Gulbarga"},"geometry":{"type":"Point","coordinates":[76.3605783,17.2005764]}},{"type":"Feature","properties":{"name":"Jevaragi","pincode":585310,"officetype":"B.O","divisionname":"Gulbarga","regionname":"North Karnataka","taluk":"Jewargi","district":"Gulbarga"},"geometry":{"type":"Point","coordinates":[76.7752353,17.0121947]}},{"type":"Feature","properties":{"name":"Kembhavi","pincode":585216,"officetype":"B.O","divisionname":"Gulbarga","regionname":"North Karnataka","taluk":"Shorapur","district":"Yadgir"},"geometry":{"type":"Point","coordinates":[76.532097,16.6514354]}},{"type":"Feature","properties":{"name":"Farahatabad","pincode":585308,"officetype":"B.O","divisionname":"Gulbarga","regionname":"North Karnataka","taluk":"Gulbarga","district":"Gulbarga"},"geometry":{"type":"Point","coordinates":[76.7903829,17.183201]}},{"type":"Feature","properties":{"name":"Sedam","pincode":585222,"officetype":"B.O","divisionname":"Gulbarga","regionname":"North Karnataka","taluk":"Sedam","district":"Gulbarga"},"geometry":{"type":"Point","coordinates":[77.2823552,17.1772683]}},{"type":"Feature","properties":{"name":"Gurumathakal","pincode":585214,"officetype":"B.O","divisionname":"Gulbarga","regionname":"North Karnataka","taluk":"Yadgiri","district":"Yadgir"},"geometry":{"type":"Point","coordinates":[77.3929038,16.8682646]}},{"type":"Feature","properties":{"name":"Chitapura","pincode":585211,"officetype":"B.O","divisionname":"Gulbarga","regionname":"North Karnataka","taluk":"Chitapur","district":"Gulbarga"},"geometry":{"type":"Point","coordinates":[77.0855922,17.1173546]}},{"type":"Feature","properties":{"name":"Kalagi","pincode":585312,"officetype":"B.O","divisionname":"Gulbarga","regionname":"North Karnataka","taluk":"Chittapur","district":"Gulbarga"},"geometry":{"type":"Point","coordinates":[77.1532997,17.353429]}},{"type":"Feature","properties":{"name":"Shahapura","pincode":585223,"officetype":"B.O","divisionname":"Gulbarga","regionname":"North Karnataka","taluk":"Shahapur","district":"Yadgir"},"geometry":{"type":"Point","coordinates":[76.8410045,16.6991627]}},{"type":"Feature","properties":{"name":"Gogi","pincode":585309,"officetype":"B.O","divisionname":"Gulbarga","regionname":"North Karnataka","taluk":"Shahapur","district":"Yadgir"},"geometry":{"type":"Point","coordinates":[76.747477,16.73202]}},{"type":"Feature","properties":{"name":"Malakheda","pincode":585317,"officetype":"B.O","divisionname":"Gulbarga","regionname":"North Karnataka","taluk":"Chittapur","district":"Gulbarga"},"geometry":{"type":"Point","coordinates":[77.1588267,17.1954492]}},{"type":"Feature","properties":{"name":"Kamalapura","pincode":585313,"officetype":"B.O","divisionname":"Gulbarga","regionname":"North Karnataka","taluk":"Gulbarga","district":"Gulbarga"},"geometry":{"type":"Point","coordinates":[76.9893177,17.5784737]}},{"type":"Feature","properties":{"name":"Hunasagi","pincode":585215,"officetype":"B.O","divisionname":"Gulbarga","regionname":"North Karnataka","taluk":"Shorapur","district":"Yadgir"},"geometry":{"type":"Point","coordinates":[76.5233374,16.4584963]}},{"type":"Feature","properties":{"name":"Sulapeta","pincode":585324,"officetype":"B.O","divisionname":"Gulbarga","regionname":"North Karnataka","taluk":"Chincholi","district":"Gulbarga"},"geometry":{"type":"Point","coordinates":[77.3472677,17.4020075]}},{"type":"Feature","properties":{"name":"Chincholi","pincode":585307,"officetype":"B.O","divisionname":"Gulbarga","regionname":"North Karnataka","taluk":"Chincholi","district":"Gulbarga"},"geometry":{"type":"Point","coordinates":[77.4189669,17.465199]}},{"type":"Feature","properties":{"name":"Saidapura Station","pincode":585221,"officetype":"B.O","divisionname":"Gulbarga","regionname":"North Karnataka","taluk":"Yadgiri","district":"Yadgir"},"geometry":{"type":"Point","coordinates":[77.252057,16.5729065]}},{"type":"Feature","properties":{"name":"Gobbura","pincode":585265,"officetype":"B.O","divisionname":"Gulbarga","regionname":"North Karnataka","taluk":"Afjalpur","district":"Gulbarga"},"geometry":{"type":"Point","coordinates":[76.6400188,17.2584698]}},{"type":"Feature","properties":{"name":"Mudola","pincode":585318,"officetype":"B.O","divisionname":"Gulbarga","regionname":"North Karnataka","taluk":"Sedam","district":"Gulbarga"},"geometry":{"type":"Point","coordinates":[77.3965285,17.0616459]}},{"type":"Feature","properties":{"name":"Kodekala","pincode":585237,"officetype":"B.O","divisionname":"Gulbarga","regionname":"North Karnataka","taluk":"Shorapur","district":"Yadgir"},"geometry":{"type":"Point","coordinates":[76.4013955,16.3525638]}},{"type":"Feature","properties":{"name":"Wadi","pincode":585225,"officetype":"B.O","divisionname":"Gulbarga","regionname":"North Karnataka","taluk":"Chittapur","district":"Gulbarga"},"geometry":{"type":"Point","coordinates":[76.989392,17.0500145]}},{"type":"Feature","properties":{"name":"Hirekerura","pincode":581111,"officetype":"B.O","divisionname":"Haveri","regionname":"North Karnataka","taluk":"Hirekerur","district":"Haveri"},"geometry":{"type":"Point","coordinates":[75.392949,14.4551224]}},{"type":"Feature","properties":{"name":"Ranebennur","pincode":581115,"officetype":"B.O","divisionname":"Haveri","regionname":"North Karnataka","taluk":"Ranebennur","district":"Haveri"},"geometry":{"type":"Point","coordinates":[75.6341529,14.6165795]}},{"type":"Feature","properties":{"name":"Hanagalla","pincode":581104,"officetype":"B.O","divisionname":"Haveri","regionname":"North Karnataka","taluk":"Hangal","district":"Haveri"},"geometry":{"type":"Point","coordinates":[75.1244336,14.7653513]}},{"type":"Feature","properties":{"name":"Shiggaon","pincode":581205,"officetype":"B.O","divisionname":"Haveri","regionname":"North Karnataka","taluk":"Shiggaon","district":"Haveri"},"geometry":{"type":"Point","coordinates":[75.2234815,14.9899007]}},{"type":"Feature","properties":{"name":"Haveri","pincode":581110,"officetype":"B.O","divisionname":"Haveri","regionname":"North Karnataka","taluk":"Haveri","district":"Haveri"},"geometry":{"type":"Point","coordinates":[75.4035296,14.7897512]}},{"type":"Feature","properties":{"name":"Bankapura","pincode":581202,"officetype":"B.O","divisionname":"Haveri","regionname":"North Karnataka","taluk":"Haveri","district":"Haveri"},"geometry":{"type":"Point","coordinates":[75.2639298,14.9217443]}},{"type":"Feature","properties":{"name":"Tumminakatti","pincode":581119,"officetype":"B.O","divisionname":"Haveri","regionname":"North Karnataka","taluk":"Hirekerur","district":"Haveri"},"geometry":{"type":"Point","coordinates":[75.6195158,14.4122402]}},{"type":"Feature","properties":{"name":"Savanura","pincode":581118,"officetype":"B.O","divisionname":"Haveri","regionname":"North Karnataka","taluk":"Savanur","district":"Haveri"},"geometry":{"type":"Point","coordinates":[75.3397064,14.9750243]}},{"type":"Feature","properties":{"name":"Havasbhavi","pincode":581108,"officetype":"B.O","divisionname":"Haveri","regionname":"North Karnataka","taluk":"Haveri","district":"Haveri"},"geometry":{"type":"Point","coordinates":[75.3687,14.5691]}},{"type":"Feature","properties":{"name":"Dhundshi","pincode":581193,"officetype":"B.O","divisionname":"Haveri","regionname":"North Karnataka","taluk":"Shiggaon","district":"Haveri"},"geometry":{"type":"Point","coordinates":[75.142215,15.0276332]}},{"type":"Feature","properties":{"name":"Akki Alura","pincode":581102,"officetype":"B.O","divisionname":"Haveri","regionname":"North Karnataka","taluk":"Hangal","district":"Haveri"},"geometry":{"type":"Point","coordinates":[75.1675785,14.7276739]}},{"type":"Feature","properties":{"name":"Agadi","pincode":581128,"officetype":"B.O","divisionname":"Haveri","regionname":"North Karnataka","taluk":"Haveri","district":"Haveri"},"geometry":{"type":"Point","coordinates":[75.4680102,14.8192806]}},{"type":"Feature","properties":{"name":"Byadagi","pincode":581106,"officetype":"B.O","divisionname":"Haveri","regionname":"North Karnataka","taluk":"Byadgi","district":"Haveri"},"geometry":{"type":"Point","coordinates":[75.4858218,14.6719843]}},{"type":"Feature","properties":{"name":"Honnavara","pincode":581334,"officetype":"B.O","divisionname":"Karwar","regionname":"North Karnataka","taluk":"Honavar","district":"Uttara Kannada"},"geometry":{"type":"Point","coordinates":[74.4444079,14.2805251]}},{"type":"Feature","properties":{"name":"Mirjana","pincode":581440,"officetype":"B.O","divisionname":"Karwar","regionname":"North Karnataka","taluk":"Kumta","district":"Uttara Kannada"},"geometry":{"type":"Point","coordinates":[74.4242212,14.49194]}},{"type":"Feature","properties":{"name":"Bhatkal","pincode":581320,"officetype":"B.O","divisionname":"Karwar","regionname":"North Karnataka","taluk":"Bhatkal","district":"Uttara Kannada"},"geometry":{"type":"Point","coordinates":[74.5485295,13.9952114]}},{"type":"Feature","properties":{"name":"Ankola","pincode":581314,"officetype":"B.O","divisionname":"Karwar","regionname":"North Karnataka","taluk":"Ankola","district":"Uttara Kannada"},"geometry":{"type":"Point","coordinates":[74.3047846,14.6599889]}},{"type":"Feature","properties":{"name":"Madanageri","pincode":581344,"officetype":"B.O","divisionname":"Karwar","regionname":"North Karnataka","taluk":"Kumta","district":"Uttara Kannada"},"geometry":{"type":"Point","coordinates":[74.3752818,14.577581]}},{"type":"Feature","properties":{"name":"Haladipura","pincode":581327,"officetype":"B.O","divisionname":"Karwar","regionname":"North Karnataka","taluk":"Honavar","district":"Uttara Kannada"},"geometry":{"type":"Point","coordinates":[74.4221257,14.343058]}},{"type":"Feature","properties":{"name":"Manki","pincode":581348,"officetype":"B.O","divisionname":"Karwar","regionname":"North Karnataka","taluk":"Honavar","district":"Uttara Kannada"},"geometry":{"type":"Point","coordinates":[74.4821183,14.1833904]}},{"type":"Feature","properties":{"name":"Gerusoppa","pincode":581384,"officetype":"B.O","divisionname":"Karwar","regionname":"North Karnataka","taluk":"Honavar","district":"Uttara Kannada"},"geometry":{"type":"Point","coordinates":[74.6532531,14.2433775]}},{"type":"Feature","properties":{"name":"Gokarna","pincode":581326,"officetype":"B.O","divisionname":"Karwar","regionname":"North Karnataka","taluk":"Kumta","district":"Uttara Kannada"},"geometry":{"type":"Point","coordinates":[74.3184418,14.5439629]}},{"type":"Feature","properties":{"name":"Sadashivagada","pincode":581352,"officetype":"B.O","divisionname":"Karwar","regionname":"North Karnataka","taluk":"Karwar","district":"Uttara Kannada"},"geometry":{"type":"Point","coordinates":[74.1319536,14.8561691]}},{"type":"Feature","properties":{"name":"Sirsi","pincode":581400,"officetype":"B.O","divisionname":"Karwar","regionname":"North Karnataka","taluk":"Karwar","district":"Uttara Kannada"},"geometry":{"type":"Point","coordinates":[74.8350192,14.6176591]}},{"type":"Feature","properties":{"name":"Kasarakoda","pincode":581342,"officetype":"B.O","divisionname":"Karwar","regionname":"North Karnataka","taluk":"Honavar","district":"Uttara Kannada"},"geometry":{"type":"Point","coordinates":[74.4483634,14.243753]}},{"type":"Feature","properties":{"name":"Avarsa","pincode":581316,"officetype":"B.O","divisionname":"Karwar","regionname":"North Karnataka","taluk":"Ankola","district":"Uttara Kannada"},"geometry":{"type":"Point","coordinates":[74.2815356,14.7221715]}},{"type":"Feature","properties":{"name":"Shirali","pincode":581354,"officetype":"B.O","divisionname":"Karwar","regionname":"North Karnataka","taluk":"Bhatkal","district":"Uttara Kannada"},"geometry":{"type":"Point","coordinates":[74.5286591,14.0280925]}},{"type":"Feature","properties":{"name":"Murudeshvara","pincode":581350,"officetype":"B.O","divisionname":"Karwar","regionname":"North Karnataka","taluk":"Bhatkal","district":"Uttara Kannada"},"geometry":{"type":"Point","coordinates":[74.4883354,14.0959549]}},{"type":"Feature","properties":{"name":"Sindhanur","pincode":584128,"officetype":"B.O","divisionname":"Raichur","regionname":"North Karnataka","taluk":"Sindhanur","district":"Raichur"},"geometry":{"type":"Point","coordinates":[76.7549604,15.7692192]}},{"type":"Feature","properties":{"name":"Manvi","pincode":584123,"officetype":"B.O","divisionname":"Raichur","regionname":"North Karnataka","taluk":"Manvi","district":"Raichur"},"geometry":{"type":"Point","coordinates":[77.0485811,15.9969307]}},{"type":"Feature","properties":{"name":"Mudagal","pincode":584125,"officetype":"B.O","divisionname":"Raichur","regionname":"North Karnataka","taluk":"Lingasugur","district":"Raichur"},"geometry":{"type":"Point","coordinates":[76.4410153,16.012447]}},{"type":"Feature","properties":{"name":"Yeramarasa","pincode":584134,"officetype":"B.O","divisionname":"Raichur","regionname":"North Karnataka","taluk":"Raichur","district":"Raichur"},"geometry":{"type":"Point","coordinates":[77.3528207,16.260406]}},{"type":"Feature","properties":{"name":"Turavihala","pincode":584132,"officetype":"B.O","divisionname":"Raichur","regionname":"North Karnataka","taluk":"Sindhanur","district":"Raichur"},"geometry":{"type":"Point","coordinates":[76.5976263,15.7620689]}},{"type":"Feature","properties":{"name":"Siravara","pincode":584129,"officetype":"B.O","divisionname":"Raichur","regionname":"North Karnataka","taluk":"Manvi","district":"Raichur"},"geometry":{"type":"Point","coordinates":[77.02154,16.1753157]}},{"type":"Feature","properties":{"name":"Kallura","pincode":584118,"officetype":"B.O","divisionname":"Raichur","regionname":"North Karnataka","taluk":"Manvi","district":"Raichur"},"geometry":{"type":"Point","coordinates":[77.2092093,16.1390426]}},{"type":"Feature","properties":{"name":"Devadurga","pincode":584111,"officetype":"B.O","divisionname":"Raichur","regionname":"North Karnataka","taluk":"Deodurga","district":"Raichur"},"geometry":{"type":"Point","coordinates":[76.9334447,16.4215885]}},{"type":"Feature","properties":{"name":"Maski","pincode":584124,"officetype":"B.O","divisionname":"Raichur","regionname":"North Karnataka","taluk":"Lingasugur","district":"Raichur"},"geometry":{"type":"Point","coordinates":[76.6573629,15.958598]}},{"type":"Feature","properties":{"name":"Gabburu","pincode":584113,"officetype":"B.O","divisionname":"Raichur","regionname":"North Karnataka","taluk":"Raichur","district":"Raichur"},"geometry":{"type":"Point","coordinates":[77.1565884,16.308213]}},{"type":"Feature","properties":{"name":"Kavitala","pincode":584120,"officetype":"B.O","divisionname":"Raichur","regionname":"North Karnataka","taluk":"Manvi","district":"Raichur"},"geometry":{"type":"Point","coordinates":[76.7951306,16.1086291]}},{"type":"Feature","properties":{"name":"Jalihalli","pincode":584116,"officetype":"B.O","divisionname":"Raichur","regionname":"North Karnataka","taluk":"Deodurga","district":"Raichur"},"geometry":{"type":"Point","coordinates":[76.7808528,16.3651178]}},{"type":"Feature","properties":{"name":"Gurugunta","pincode":584139,"officetype":"B.O","divisionname":"Raichur","regionname":"North Karnataka","taluk":"Lingasugur","district":"Raichur"},"geometry":{"type":"Point","coordinates":[76.6302571,16.2875775]}},{"type":"Feature","properties":{"name":"Salagunda","pincode":584167,"officetype":"B.O","divisionname":"Raichur","regionname":"North Karnataka","taluk":"Sindhanur","district":"Raichur"},"geometry":{"type":"Point","coordinates":[76.8313099,15.6646271]}},{"type":"Feature","properties":{"name":"Lingasugur","pincode":584122,"officetype":"B.O","divisionname":"Raichur","regionname":"North Karnataka","taluk":"Lingasugur","district":"Raichur"},"geometry":{"type":"Point","coordinates":[76.5242,16.1563]}},{"type":"Feature","properties":{"name":"Kalamala","pincode":584136,"officetype":"B.O","divisionname":"Raichur","regionname":"North Karnataka","taluk":"Raichur","district":"Raichur"},"geometry":{"type":"Point","coordinates":[77.2062659,16.1976216]}},{"type":"Feature","properties":{"name":"Haliyal","pincode":581329,"officetype":"B.O","divisionname":"Sirsi","regionname":"North Karnataka","taluk":"Haliyal","district":"Uttara Kannada"},"geometry":{"type":"Point","coordinates":[74.764532,15.3301187]}},{"type":"Feature","properties":{"name":"Yekkambi","pincode":581358,"officetype":"B.O","divisionname":"Sirsi","regionname":"North Karnataka","taluk":"Sirsi","district":"Uttara Kannada"},"geometry":{"type":"Point","coordinates":[74.9151973,14.6974183]}},{"type":"Feature","properties":{"name":"Idagundi","pincode":581337,"officetype":"B.O","divisionname":"Sirsi","regionname":"North Karnataka","taluk":"Yellapur","district":"Uttara Kannada"},"geometry":{"type":"Point","coordinates":[74.6516817,14.9115608]}},{"type":"Feature","properties":{"name":"Kumbharvada","pincode":581187,"officetype":"B.O","divisionname":"Sirsi","regionname":"North Karnataka","taluk":"Joida","district":"Uttara Kannada"},"geometry":{"type":"Point","coordinates":[74.4051562,15.1273914]}},{"type":"Feature","properties":{"name":"Manchikeri","pincode":581347,"officetype":"B.O","divisionname":"Sirsi","regionname":"North Karnataka","taluk":"Yellpur","district":"Uttara Kannada"},"geometry":{"type":"Point","coordinates":[74.8178843,14.8577735]}},{"type":"Feature","properties":{"name":"Ammenalli","pincode":581315,"officetype":"B.O","divisionname":"Sirsi","regionname":"North Karnataka","taluk":"Sirsi","district":"Uttara Kannada"},"geometry":{"type":"Point","coordinates":[74.7307052,14.5446557]}},{"type":"Feature","properties":{"name":"Mundagoda","pincode":581349,"officetype":"B.O","divisionname":"Sirsi","regionname":"North Karnataka","taluk":"Mundgod","district":"Uttara Kannada"},"geometry":{"type":"Point","coordinates":[75.0371451,14.9705105]}},{"type":"Feature","properties":{"name":"Hulekal","pincode":581336,"officetype":"B.O","divisionname":"Sirsi","regionname":"North Karnataka","taluk":"Sirsi","district":"Uttara Kannada"},"geometry":{"type":"Point","coordinates":[74.7618551,14.6945452]}},{"type":"Feature","properties":{"name":"Yellapur","pincode":581359,"officetype":"B.O","divisionname":"Sirsi","regionname":"North Karnataka","taluk":"Yellpur","district":"Uttara Kannada"},"geometry":{"type":"Point","coordinates":[74.7061458,14.9622518]}},{"type":"Feature","properties":{"name":"Dandeli","pincode":581325,"officetype":"B.O","divisionname":"Sirsi","regionname":"North Karnataka","taluk":"Haliyal","district":"Uttara Kannada"},"geometry":{"type":"Point","coordinates":[74.6236037,15.2490284]}},{"type":"Feature","properties":{"name":"Bilagi","pincode":581322,"officetype":"B.O","divisionname":"Sirsi","regionname":"North Karnataka","taluk":"Siddapur","district":"Uttara Kannada"},"geometry":{"type":"Point","coordinates":[74.7978983,14.3603464]}},{"type":"Feature","properties":{"name":"Kiravatti","pincode":581412,"officetype":"B.O","divisionname":"Sirsi","regionname":"North Karnataka","taluk":"Yellapur","district":"Uttara Kannada"},"geometry":{"type":"Point","coordinates":[74.8446,15.0525]}},{"type":"Feature","properties":{"name":"Chikkamagaluru","pincode":577101,"officetype":"B.O","divisionname":"Chikmagalur","regionname":"South Karnataka","taluk":"Chikmagalur","district":"Chickmagalur"},"geometry":{"type":"Point","coordinates":[75.7738743,13.318014]}},{"type":"Feature","properties":{"name":"Biruru","pincode":577116,"officetype":"B.O","divisionname":"Chikmagalur","regionname":"South Karnataka","taluk":"Kadur","district":"Chickmagalur"},"geometry":{"type":"Point","coordinates":[75.9734079,13.598661]}},{"type":"Feature","properties":{"name":"Tarikere","pincode":577228,"officetype":"B.O","divisionname":"Chikmagalur","regionname":"South Karnataka","taluk":"Tarikere","district":"Chickmagalur"},"geometry":{"type":"Point","coordinates":[75.8166288,13.7072003]}},{"type":"Feature","properties":{"name":"Koppa","pincode":577126,"officetype":"B.O","divisionname":"Chikmagalur","regionname":"South Karnataka","taluk":"Koppa","district":"Chickmagalur"},"geometry":{"type":"Point","coordinates":[75.3622264,13.5339083]}},{"type":"Feature","properties":{"name":"Shivani","pincode":577549,"officetype":"B.O","divisionname":"Chikmagalur","regionname":"South Karnataka","taluk":"Tarikere","district":"Chickmagalur"},"geometry":{"type":"Point","coordinates":[76.0312718,13.8173269]}},{"type":"Feature","properties":{"name":"Mudigere","pincode":577132,"officetype":"B.O","divisionname":"Chikmagalur","regionname":"South Karnataka","taluk":"Mudigere","district":"Chickmagalur"},"geometry":{"type":"Point","coordinates":[75.6418845,13.1325747]}},{"type":"Feature","properties":{"name":"Ajjampura","pincode":577547,"officetype":"B.O","divisionname":"Chikmagalur","regionname":"South Karnataka","taluk":"Tarikere","district":"Chickmagalur"},"geometry":{"type":"Point","coordinates":[76.0013261,13.7247567]}},{"type":"Feature","properties":{"name":"Kalasa","pincode":577124,"officetype":"B.O","divisionname":"Chikmagalur","regionname":"South Karnataka","taluk":"Mudigere","district":"Chickmagalur"},"geometry":{"type":"Point","coordinates":[75.3589182,13.232926]}},{"type":"Feature","properties":{"name":"Narasimharajapura","pincode":577134,"officetype":"B.O","divisionname":"Chikmagalur","regionname":"South Karnataka","taluk":"Narasimharajapura","district":"Chickmagalur"},"geometry":{"type":"Point","coordinates":[75.5130028,13.6086383]}},{"type":"Feature","properties":{"name":"Lingadahalli","pincode":577144,"officetype":"B.O","divisionname":"Chikmagalur","regionname":"South Karnataka","taluk":"Tarikere","district":"Chickmagalur"},"geometry":{"type":"Point","coordinates":[75.843819,13.5969321]}},{"type":"Feature","properties":{"name":"Hariharapura","pincode":577120,"officetype":"B.O","divisionname":"Chikmagalur","regionname":"South Karnataka","taluk":"Koppa","district":"Chickmagalur"},"geometry":{"type":"Point","coordinates":[75.3016877,13.5203047]}},{"type":"Feature","properties":{"name":"Magundi","pincode":577160,"officetype":"B.O","divisionname":"Chikmagalur","regionname":"South Karnataka","taluk":"Mudigere","district":"Chickmagalur"},"geometry":{"type":"Point","coordinates":[75.4806,13.2735]}},{"type":"Feature","properties":{"name":"Santaveri","pincode":577137,"officetype":"B.O","divisionname":"Chikmagalur","regionname":"South Karnataka","taluk":"Tarikere","district":"Chickmagalur"},"geometry":{"type":"Point","coordinates":[75.8053752,13.5176157]}},{"type":"Feature","properties":{"name":"Kaduru","pincode":577548,"officetype":"B.O","divisionname":"Chikmagalur","regionname":"South Karnataka","taluk":"Kadur","district":"Chickmagalur"},"geometry":{"type":"Point","coordinates":[76.011524,13.5527367]}},{"type":"Feature","properties":{"name":"Sakharayapattana","pincode":577135,"officetype":"B.O","divisionname":"Chikmagalur","regionname":"South Karnataka","taluk":"Kadur","district":"Chickmagalur"},"geometry":{"type":"Point","coordinates":[75.920889,13.4331791]}},{"type":"Feature","properties":{"name":"Nayakanahatti","pincode":577536,"officetype":"B.O","divisionname":"Chitradurga","regionname":"South Karnataka","taluk":"Challakere","district":"Chitradurga"},"geometry":{"type":"Point","coordinates":[76.5441933,14.4687876]}},{"type":"Feature","properties":{"name":"Hosadurga","pincode":577527,"officetype":"B.O","divisionname":"Chitradurga","regionname":"South Karnataka","taluk":"Hoadurga","district":"Chitradurga"},"geometry":{"type":"Point","coordinates":[76.2831034,13.7987759]}},{"type":"Feature","properties":{"name":"Hadadi","pincode":577525,"officetype":"B.O","divisionname":"Chitradurga","regionname":"South Karnataka","taluk":"Davangere","district":"Davangere"},"geometry":{"type":"Point","coordinates":[75.8906875,14.3636422]}},{"type":"Feature","properties":{"name":"Jagaluru","pincode":577528,"officetype":"B.O","divisionname":"Chitradurga","regionname":"South Karnataka","taluk":"","district":"Davangere"},"geometry":{"type":"Point","coordinates":[76.3398876,14.5199847]}},{"type":"Feature","properties":{"name":"Holalkere","pincode":577526,"officetype":"B.O","divisionname":"Chitradurga","regionname":"South Karnataka","taluk":"Holalkere","district":"Chitradurga"},"geometry":{"type":"Point","coordinates":[76.1830168,14.0421734]}},{"type":"Feature","properties":{"name":"Malebennuru","pincode":577530,"officetype":"B.O","divisionname":"Chitradurga","regionname":"South Karnataka","taluk":"Harihara","district":"Davangere"},"geometry":{"type":"Point","coordinates":[75.7384255,14.3533447]}},{"type":"Feature","properties":{"name":"Challakere","pincode":577522,"officetype":"B.O","divisionname":"Chitradurga","regionname":"South Karnataka","taluk":"Challakere","district":"Chitradurga"},"geometry":{"type":"Point","coordinates":[76.6497826,14.3134476]}},{"type":"Feature","properties":{"name":"Hanagal","pincode":577535,"officetype":"B.O","divisionname":"Chitradurga","regionname":"South Karnataka","taluk":"Molakalmuru","district":"Chitradurga"},"geometry":{"type":"Point","coordinates":[76.7039857,14.7383723]}},{"type":"Feature","properties":{"name":"Aimangala","pincode":577558,"officetype":"B.O","divisionname":"Chitradurga","regionname":"South Karnataka","taluk":"Hiriyur","district":"Chitradurga"},"geometry":{"type":"Point","coordinates":[76.5356708,14.0946288]}},{"type":"Feature","properties":{"name":"Talaku","pincode":577543,"officetype":"B.O","divisionname":"Chitradurga","regionname":"South Karnataka","taluk":"Challakere","district":"Chitradurga"},"geometry":{"type":"Point","coordinates":[76.6829132,14.4493715]}},{"type":"Feature","properties":{"name":"Bilichodu","pincode":577553,"officetype":"B.O","divisionname":"Chitradurga","regionname":"South Karnataka","taluk":"","district":"Davangere"},"geometry":{"type":"Point","coordinates":[76.1597766,14.4934249]}},{"type":"Feature","properties":{"name":"Bargur","pincode":577515,"officetype":"B.O","divisionname":"Chitradurga","regionname":"South Karnataka","taluk":"Hosadurga","district":"Chitradurga"},"geometry":{"type":"Point","coordinates":[76.9804449,13.9348717]}},{"type":"Feature","properties":{"name":"Shriramapura","pincode":577542,"officetype":"B.O","divisionname":"Chitradurga","regionname":"South Karnataka","taluk":"Hoadurga","district":"Chitradurga"},"geometry":{"type":"Point","coordinates":[76.4185453,13.6244662]}},{"type":"Feature","properties":{"name":"Chikkajajuru","pincode":577523,"officetype":"B.O","divisionname":"Chitradurga","regionname":"South Karnataka","taluk":"","district":"Chitradurga"},"geometry":{"type":"Point","coordinates":[76.1414501,14.1271672]}},{"type":"Feature","properties":{"name":"Parasurampura","pincode":577538,"officetype":"B.O","divisionname":"Chitradurga","regionname":"South Karnataka","taluk":"Challakere","district":"Chitradurga"},"geometry":{"type":"Point","coordinates":[76.8822367,14.2583426]}},{"type":"Feature","properties":{"name":"Turuvanuru","pincode":577517,"officetype":"B.O","divisionname":"Chitradurga","regionname":"South Karnataka","taluk":"Chitradurga","district":"Chitradurga"},"geometry":{"type":"Point","coordinates":[76.4388304,14.3996758]}},{"type":"Feature","properties":{"name":"Bharamasagara","pincode":577519,"officetype":"B.O","divisionname":"Chitradurga","regionname":"South Karnataka","taluk":"Chitradurga","district":"Chitradurga"},"geometry":{"type":"Point","coordinates":[76.1910867,14.3716034]}},{"type":"Feature","properties":{"name":"Anagodu","pincode":577566,"officetype":"B.O","divisionname":"Chitradurga","regionname":"South Karnataka","taluk":"Harihra","district":"Davangere"},"geometry":{"type":"Point","coordinates":[76.0436527,14.3948798]}},{"type":"Feature","properties":{"name":"Halebidu","pincode":573121,"officetype":"B.O","divisionname":"Hassan","regionname":"South Karnataka","taluk":"Belur","district":"Hassan"},"geometry":{"type":"Point","coordinates":[75.9918793,13.2167959]}},{"type":"Feature","properties":{"name":"Arkalgud","pincode":573102,"officetype":"B.O","divisionname":"Hassan","regionname":"South Karnataka","taluk":"Arkalgud","district":"Hassan"},"geometry":{"type":"Point","coordinates":[76.0565306,12.7663392]}},{"type":"Feature","properties":{"name":"Arasikere","pincode":573103,"officetype":"B.O","divisionname":"Hassan","regionname":"South Karnataka","taluk":"Arsikere","district":"Hassan"},"geometry":{"type":"Point","coordinates":[76.2568436,13.3159809]}},{"type":"Feature","properties":{"name":"Belur","pincode":573115,"officetype":"B.O","divisionname":"Hassan","regionname":"South Karnataka","taluk":"Belur","district":"Hassan"},"geometry":{"type":"Point","coordinates":[75.8634061,13.1665565]}},{"type":"Feature","properties":{"name":"Holenarasipura","pincode":573211,"officetype":"B.O","divisionname":"Hassan","regionname":"South Karnataka","taluk":"Holeanarasipur","district":"Hassan"},"geometry":{"type":"Point","coordinates":[76.2431266,12.7852158]}},{"type":"Feature","properties":{"name":"Kanakatte","pincode":573144,"officetype":"B.O","divisionname":"Hassan","regionname":"South Karnataka","taluk":"Arsikere","district":"Hassan"},"geometry":{"type":"Point","coordinates":[76.318222,13.5150883]}},{"type":"Feature","properties":{"name":"Channarayapattana","pincode":573116,"officetype":"B.O","divisionname":"Hassan","regionname":"South Karnataka","taluk":"Channarayapatna","district":"Hassan"},"geometry":{"type":"Point","coordinates":[76.3872015,12.9064885]}},{"type":"Feature","properties":{"name":"Banavara","pincode":573112,"officetype":"B.O","divisionname":"Hassan","regionname":"South Karnataka","taluk":"Arsikere","district":"Hassan"},"geometry":{"type":"Point","coordinates":[76.1615079,13.409679]}},{"type":"Feature","properties":{"name":"Shravanabelagola","pincode":573135,"officetype":"B.O","divisionname":"Hassan","regionname":"South Karnataka","taluk":"Channarayapatna","district":"Hassan"},"geometry":{"type":"Point","coordinates":[76.4913667,12.8575756]}},{"type":"Feature","properties":{"name":"Hirisave","pincode":573124,"officetype":"B.O","divisionname":"Hassan","regionname":"South Karnataka","taluk":"Channarayapatna","district":"Hassan"},"geometry":{"type":"Point","coordinates":[76.576616,12.9498785]}},{"type":"Feature","properties":{"name":"Gorur","pincode":573120,"officetype":"B.O","divisionname":"Hassan","regionname":"South Karnataka","taluk":"Hassan","district":"Hassan"},"geometry":{"type":"Point","coordinates":[76.0639,12.8247706]}},{"type":"Feature","properties":{"name":"Somwarpet","pincode":571236,"officetype":"B.O","divisionname":"Kodagu","regionname":"South Karnataka","taluk":"Somvarpet","district":"Kodagu"},"geometry":{"type":"Point","coordinates":[75.8457638,12.6004446]}},{"type":"Feature","properties":{"name":"Suntikoppa","pincode":571237,"officetype":"B.O","divisionname":"Kodagu","regionname":"South Karnataka","taluk":"Somwarpet","district":"Kodagu"},"geometry":{"type":"Point","coordinates":[75.8319972,12.4528955]}},{"type":"Feature","properties":{"name":"Gonikoppal","pincode":571218,"officetype":"B.O","divisionname":"Kodagu","regionname":"South Karnataka","taluk":"Virajpet","district":"Kodagu"},"geometry":{"type":"Point","coordinates":[75.9256489,12.183561]}},{"type":"Feature","properties":{"name":"Titimati","pincode":571254,"officetype":"B.O","divisionname":"Kodagu","regionname":"South Karnataka","taluk":"Virajpet","district":"Kodagu"},"geometry":{"type":"Point","coordinates":[76.0041201,12.2250848]}},{"type":"Feature","properties":{"name":"Chattanahalli","pincode":571248,"officetype":"B.O","divisionname":"Kodagu","regionname":"South Karnataka","taluk":"Somvarpet","district":"Kodagu"},"geometry":{"type":"Point","coordinates":[76.5541489,12.205079]}},{"type":"Feature","properties":{"name":"Kushalanagara","pincode":571234,"officetype":"B.O","divisionname":"Kodagu","regionname":"South Karnataka","taluk":"Somwarpet","district":"Kodagu"},"geometry":{"type":"Point","coordinates":[75.961437,12.4585525]}},{"type":"Feature","properties":{"name":"Narasapura","pincode":563133,"officetype":"B.O","divisionname":"Kolar","regionname":"South Karnataka","taluk":"Kolar","district":"Kolar"},"geometry":{"type":"Point","coordinates":[78.0043951,13.1382537]}},{"type":"Feature","properties":{"name":"Chikkaballapura","pincode":562101,"officetype":"B.O","divisionname":"Kolar","regionname":"South Karnataka","taluk":"Chickballapur","district":"Chikkaballapur"},"geometry":{"type":"Point","coordinates":[77.7306866,13.4352549]}},{"type":"Feature","properties":{"name":"Bagepalli","pincode":561207,"officetype":"B.O","divisionname":"Kolar","regionname":"South Karnataka","taluk":"Bagepalli","district":"Chikkaballapur"},"geometry":{"type":"Point","coordinates":[77.795976,13.783537]}},{"type":"Feature","properties":{"name":"Gauribidanuru","pincode":561208,"officetype":"B.O","divisionname":"Kolar","regionname":"South Karnataka","taluk":"Gauribidanur","district":"Chikkaballapur"},"geometry":{"type":"Point","coordinates":[77.5167805,13.6114523]}},{"type":"Feature","properties":{"name":"Betamangala","pincode":563116,"officetype":"B.O","divisionname":"Kolar","regionname":"South Karnataka","taluk":"Bangarpet","district":"Kolar"},"geometry":{"type":"Point","coordinates":[78.3310142,13.0073971]}},{"type":"Feature","properties":{"name":"Shrinivasapura","pincode":563135,"officetype":"B.O","divisionname":"Kolar","regionname":"South Karnataka","taluk":"Srinivasapura","district":"Kolar"},"geometry":{"type":"Point","coordinates":[78.2113678,13.3391141]}},{"type":"Feature","properties":{"name":"Kamasamudra","pincode":563129,"officetype":"B.O","divisionname":"Kolar","regionname":"South Karnataka","taluk":"Bangarapet","district":"Kolar"},"geometry":{"type":"Point","coordinates":[78.1995794,12.8763252]}},{"type":"Feature","properties":{"name":"Mulabagal","pincode":563131,"officetype":"B.O","divisionname":"Kolar","regionname":"South Karnataka","taluk":"Mulbagal","district":"Kolar"},"geometry":{"type":"Point","coordinates":[78.3946737,13.1626667]}},{"type":"Feature","properties":{"name":"Sidlaghatta","pincode":562105,"officetype":"B.O","divisionname":"Kolar","regionname":"South Karnataka","taluk":"Sidlaghatta","district":"Chikkaballapur"},"geometry":{"type":"Point","coordinates":[77.8641332,13.3885218]}},{"type":"Feature","properties":{"name":"Patapalya","pincode":561212,"officetype":"B.O","divisionname":"Kolar","regionname":"South Karnataka","taluk":"Bagepalli","district":"Chikkaballapur"},"geometry":{"type":"Point","coordinates":[77.9470078,13.7547824]}},{"type":"Feature","properties":{"name":"Nagamangala","pincode":571432,"officetype":"B.O","divisionname":"Mandya","regionname":"South Karnataka","taluk":"Nagamangala","district":"Mandya"},"geometry":{"type":"Point","coordinates":[76.7542189,12.8196077]}},{"type":"Feature","properties":{"name":"Koppa","pincode":571425,"officetype":"B.O","divisionname":"Mandya","regionname":"South Karnataka","taluk":"Maddur","district":"Mandya"},"geometry":{"type":"Point","coordinates":[76.9569332,12.7110046]}},{"type":"Feature","properties":{"name":"Malavalli","pincode":571430,"officetype":"B.O","divisionname":"Mandya","regionname":"South Karnataka","taluk":"Malavalli","district":"Mandya"},"geometry":{"type":"Point","coordinates":[77.0589464,12.3864073]}},{"type":"Feature","properties":{"name":"Halaguru","pincode":571421,"officetype":"B.O","divisionname":"Mandya","regionname":"South Karnataka","taluk":"Malavalli","district":"Mandya"},"geometry":{"type":"Point","coordinates":[77.2266035,12.4246475]}},{"type":"Feature","properties":{"name":"Krishnarajapete","pincode":571426,"officetype":"B.O","divisionname":"Mandya","regionname":"South Karnataka","taluk":"K.r.pete","district":"Mandya"},"geometry":{"type":"Point","coordinates":[76.4865153,12.664687]}},{"type":"Feature","properties":{"name":"Maddur","pincode":571428,"officetype":"B.O","divisionname":"Mandya","regionname":"South Karnataka","taluk":"Maddur","district":"Mandya"},"geometry":{"type":"Point","coordinates":[77.0456404,12.5851916]}},{"type":"Feature","properties":{"name":"Mulki","pincode":574154,"officetype":"B.O","divisionname":"Mangalore","regionname":"South Karnataka","taluk":"Mangalore","district":"Dakshina Kannada"},"geometry":{"type":"Point","coordinates":[74.7870474,13.0904094]}},{"type":"Feature","properties":{"name":"Belmanna","pincode":576111,"officetype":"B.O","divisionname":"Mangalore","regionname":"South Karnataka","taluk":"Karkala","district":"Udupi"},"geometry":{"type":"Point","coordinates":[74.8688164,13.1631369]}},{"type":"Feature","properties":{"name":"Suratkal","pincode":575014,"officetype":"B.O","divisionname":"Mangalore","regionname":"South Karnataka","taluk":"Mangalore","district":"Dakshina Kannada"},"geometry":{"type":"Point","coordinates":[74.8046595,12.9830998]}},{"type":"Feature","properties":{"name":"Saligrama","pincode":571604,"officetype":"B.O","divisionname":"Mysore","regionname":"South Karnataka","taluk":"K R Nagar","district":"Mysore"},"geometry":{"type":"Point","coordinates":[76.2628551,12.5601566]}},{"type":"Feature","properties":{"name":"Tumbasoge","pincode":571121,"officetype":"B.O","divisionname":"Mysore","regionname":"South Karnataka","taluk":"H D Kote","district":"Mysore"},"geometry":{"type":"Point","coordinates":[76.3846162,12.0265375]}},{"type":"Feature","properties":{"name":"Heggadadevanakote","pincode":571114,"officetype":"B.O","divisionname":"Mysore","regionname":"South Karnataka","taluk":"H D Kote","district":"Mysore"},"geometry":{"type":"Point","coordinates":[76.3310585,12.0877256]}},{"type":"Feature","properties":{"name":"Elavala","pincode":571130,"officetype":"B.O","divisionname":"Mysore","regionname":"South Karnataka","taluk":"Mysore","district":"Mysore"},"geometry":{"type":"Point","coordinates":[76.5407604,12.3571898]}},{"type":"Feature","properties":{"name":"Piriyapattana","pincode":571107,"officetype":"B.O","divisionname":"Mysore","regionname":"South Karnataka","taluk":"Periyapatna","district":"Mysore"},"geometry":{"type":"Point","coordinates":[76.0960333,12.3378154]}},{"type":"Feature","properties":{"name":"Hunsur","pincode":571105,"officetype":"B.O","divisionname":"Mysore","regionname":"South Karnataka","taluk":"Hunsur","district":"Mysore"},"geometry":{"type":"Point","coordinates":[76.2927399,12.3038736]}},{"type":"Feature","properties":{"name":"Bettadapura","pincode":571102,"officetype":"B.O","divisionname":"Mysore","regionname":"South Karnataka","taluk":"Periyapatna","district":"Mysore"},"geometry":{"type":"Point","coordinates":[76.1017524,12.4705505]}},{"type":"Feature","properties":{"name":"Gundlupet","pincode":571111,"officetype":"B.O","divisionname":"Nanjangud","regionname":"South Karnataka","taluk":"Gundluper","district":"Chamrajnagar"},"geometry":{"type":"Point","coordinates":[76.6916141,11.808496]}},{"type":"Feature","properties":{"name":"Terakanambi","pincode":571123,"officetype":"B.O","divisionname":"Nanjangud","regionname":"South Karnataka","taluk":"Gundlupet","district":"Chamrajnagar"},"geometry":{"type":"Point","coordinates":[76.7900868,11.8135735]}},{"type":"Feature","properties":{"name":"Bannur","pincode":571101,"officetype":"B.O","divisionname":"Nanjangud","regionname":"South Karnataka","taluk":"T Narasipura","district":"Mysore"},"geometry":{"type":"Point","coordinates":[76.8616949,12.3324607]}},{"type":"Feature","properties":{"name":"Beguru","pincode":571109,"officetype":"B.O","divisionname":"Nanjangud","regionname":"South Karnataka","taluk":"Gundlupet","district":"Chamrajnagar"},"geometry":{"type":"Point","coordinates":[76.670242,11.9343936]}},{"type":"Feature","properties":{"name":"Santemarahalli","pincode":571115,"officetype":"B.O","divisionname":"Nanjangud","regionname":"South Karnataka","taluk":"Chamarajanagara","district":"Chamrajnagar"},"geometry":{"type":"Point","coordinates":[76.9807024,12.0424947]}},{"type":"Feature","properties":{"name":"Kollegal","pincode":571440,"officetype":"B.O","divisionname":"Nanjangud","regionname":"South Karnataka","taluk":"Kollegal","district":"Chamrajnagar"},"geometry":{"type":"Point","coordinates":[77.1114856,12.1548275]}},{"type":"Feature","properties":{"name":"Hanur","pincode":571439,"officetype":"B.O","divisionname":"Nanjangud","regionname":"South Karnataka","taluk":"Kollegal","district":"Chamrajnagar"},"geometry":{"type":"Point","coordinates":[77.3017969,12.0870315]}},{"type":"Feature","properties":{"name":"Chamarajanagara","pincode":571313,"officetype":"B.O","divisionname":"Nanjangud","regionname":"South Karnataka","taluk":"Chamarajanagara","district":"Chamrajnagar"},"geometry":{"type":"Point","coordinates":[76.938865,11.9236956]}},{"type":"Feature","properties":{"name":"Yelanduru","pincode":571441,"officetype":"B.O","divisionname":"Nanjangud","regionname":"South Karnataka","taluk":"Yelandur","district":"Chamrajnagar"},"geometry":{"type":"Point","coordinates":[77.0306546,12.0463301]}},{"type":"Feature","properties":{"name":"Mani","pincode":574253,"officetype":"B.O","divisionname":"Puttur","regionname":"South Karnataka","taluk":"Bantval","district":"Dakshina Kannada"},"geometry":{"type":"Point","coordinates":[75.1206634,12.8362048]}},{"type":"Feature","properties":{"name":"Venoor","pincode":574242,"officetype":"B.O","divisionname":"Puttur","regionname":"South Karnataka","taluk":"Belthangady","district":"Dakshina Kannada"},"geometry":{"type":"Point","coordinates":[75.1443252,13.0122097]}},{"type":"Feature","properties":{"name":"Belthangadi","pincode":574214,"officetype":"B.O","divisionname":"Puttur","regionname":"South Karnataka","taluk":"Belthangady","district":"Dakshina Kannada"},"geometry":{"type":"Point","coordinates":[75.2825052,12.9903521]}},{"type":"Feature","properties":{"name":"Vitla","pincode":574243,"officetype":"B.O","divisionname":"Puttur","regionname":"South Karnataka","taluk":"Bantval","district":"Dakshina Kannada"},"geometry":{"type":"Point","coordinates":[75.1025995,12.762767]}},{"type":"Feature","properties":{"name":"Sulya","pincode":574239,"officetype":"B.O","divisionname":"Puttur","regionname":"South Karnataka","taluk":"Sullia","district":"Dakshina Kannada"},"geometry":{"type":"Point","coordinates":[75.3907575,12.5576644]}},{"type":"Feature","properties":{"name":"Kadaba","pincode":574221,"officetype":"B.O","divisionname":"Puttur","regionname":"South Karnataka","taluk":"Puttur","district":"Dakshina Kannada"},"geometry":{"type":"Point","coordinates":[75.4813916,12.7431544]}},{"type":"Feature","properties":{"name":"Karkala","pincode":574104,"officetype":"B.O","divisionname":"Puttur","regionname":"South Karnataka","taluk":"Karkal","district":"Udupi"},"geometry":{"type":"Point","coordinates":[74.9959586,13.2112826]}},{"type":"Feature","properties":{"name":"Moodabidri","pincode":574227,"officetype":"B.O","divisionname":"Puttur","regionname":"South Karnataka","taluk":"Mangalore","district":"Dakshina Kannada"},"geometry":{"type":"Point","coordinates":[74.9977469,13.0699218]}},{"type":"Feature","properties":{"name":"Subrahmanya","pincode":574238,"officetype":"B.O","divisionname":"Puttur","regionname":"South Karnataka","taluk":"Puttur","district":"Dakshina Kannada"},"geometry":{"type":"Point","coordinates":[75.6131771,12.6677868]}},{"type":"Feature","properties":{"name":"Miyyar","pincode":574107,"officetype":"B.O","divisionname":"Puttur","regionname":"South Karnataka","taluk":"Karkal","district":"Udupi"},"geometry":{"type":"Point","coordinates":[75.0549,13.1879]}},{"type":"Feature","properties":{"name":"Dharmasthala","pincode":574216,"officetype":"B.O","divisionname":"Puttur","regionname":"South Karnataka","taluk":"Belthangady","district":"Dakshina Kannada"},"geometry":{"type":"Point","coordinates":[75.3845952,12.9511834]}},{"type":"Feature","properties":{"name":"Tirthahalli","pincode":577432,"officetype":"B.O","divisionname":"Shimoga","regionname":"South Karnataka","taluk":"Tirthahalli","district":"Shimoga"},"geometry":{"type":"Point","coordinates":[75.2463699,13.6901992]}},{"type":"Feature","properties":{"name":"Holaluru","pincode":577216,"officetype":"B.O","divisionname":"Shimoga","regionname":"South Karnataka","taluk":"Shimoga","district":"Shimoga"},"geometry":{"type":"Point","coordinates":[75.6801772,14.0375849]}},{"type":"Feature","properties":{"name":"Honnali","pincode":577217,"officetype":"B.O","divisionname":"Shimoga","regionname":"South Karnataka","taluk":"Honnali","district":"Davangere"},"geometry":{"type":"Point","coordinates":[75.651105,14.2385482]}},{"type":"Feature","properties":{"name":"Shikaripura","pincode":577427,"officetype":"B.O","divisionname":"Shimoga","regionname":"South Karnataka","taluk":"Shikarpur","district":"Shimoga"},"geometry":{"type":"Point","coordinates":[75.3587796,14.2639661]}},{"type":"Feature","properties":{"name":"Santebennur","pincode":577552,"officetype":"B.O","divisionname":"Shimoga","regionname":"South Karnataka","taluk":"Channagiri","district":"Davangere"},"geometry":{"type":"Point","coordinates":[76.0033586,14.168607]}},{"type":"Feature","properties":{"name":"Anavatti","pincode":577413,"officetype":"B.O","divisionname":"Shimoga","regionname":"South Karnataka","taluk":"Soraba","district":"Shimoga"},"geometry":{"type":"Point","coordinates":[75.1522678,14.5637311]}},{"type":"Feature","properties":{"name":"Hosanagara","pincode":577418,"officetype":"B.O","divisionname":"Shimoga","regionname":"South Karnataka","taluk":"Hosanagar","district":"Shimoga"},"geometry":{"type":"Point","coordinates":[75.0657952,13.916789]}},{"type":"Feature","properties":{"name":"Ulavi","pincode":577434,"officetype":"B.O","divisionname":"Shimoga","regionname":"South Karnataka","taluk":"Sorab","district":"Shimoga"},"geometry":{"type":"Point","coordinates":[75.1102276,14.2719027]}},{"type":"Feature","properties":{"name":"Nyamati","pincode":577223,"officetype":"B.O","divisionname":"Shimoga","regionname":"South Karnataka","taluk":"Honnali","district":"Davangere"},"geometry":{"type":"Point","coordinates":[75.5687105,14.1483446]}},{"type":"Feature","properties":{"name":"Talaguppa","pincode":577430,"officetype":"B.O","divisionname":"Shimoga","regionname":"South Karnataka","taluk":"Sagar","district":"Shimoga"},"geometry":{"type":"Point","coordinates":[74.911064,14.2148828]}},{"type":"Feature","properties":{"name":"Anandapura","pincode":577412,"officetype":"B.O","divisionname":"Shimoga","regionname":"South Karnataka","taluk":"Sagar","district":"Shimoga"},"geometry":{"type":"Point","coordinates":[75.2124556,14.0771569]}},{"type":"Feature","properties":{"name":"Shiralakoppa","pincode":577428,"officetype":"B.O","divisionname":"Shimoga","regionname":"South Karnataka","taluk":"Shikarpur","district":"Shimoga"},"geometry":{"type":"Point","coordinates":[75.2513885,14.3785072]}},{"type":"Feature","properties":{"name":"Savalanga","pincode":577225,"officetype":"B.O","divisionname":"Shimoga","regionname":"South Karnataka","taluk":"Shimoga","district":"Shimoga"},"geometry":{"type":"Point","coordinates":[75.5265,14.1028957]}},{"type":"Feature","properties":{"name":"Soraba","pincode":577429,"officetype":"B.O","divisionname":"Shimoga","regionname":"South Karnataka","taluk":"Sorab","district":"Shimoga"},"geometry":{"type":"Point","coordinates":[75.0921749,14.3794806]}},{"type":"Feature","properties":{"name":"Ayanuru","pincode":577211,"officetype":"B.O","divisionname":"Shimoga","regionname":"South Karnataka","taluk":"Shimoga","district":"Shimoga"},"geometry":{"type":"Point","coordinates":[75.4371898,14.0109821]}},{"type":"Feature","properties":{"name":"Channagiri","pincode":577213,"officetype":"B.O","divisionname":"Shimoga","regionname":"South Karnataka","taluk":"Channagiri","district":"Davangere"},"geometry":{"type":"Point","coordinates":[75.925,14.0252]}},{"type":"Feature","properties":{"name":"Kumsi","pincode":577423,"officetype":"B.O","divisionname":"Shimoga","regionname":"South Karnataka","taluk":"Shimoga","district":"Shimoga"},"geometry":{"type":"Point","coordinates":[75.4005739,14.0552246]}},{"type":"Feature","properties":{"name":"Agumbe","pincode":577411,"officetype":"B.O","divisionname":"Shimoga","regionname":"South Karnataka","taluk":"Tirthahalli","district":"Shimoga"},"geometry":{"type":"Point","coordinates":[75.0965525,13.5094998]}},{"type":"Feature","properties":{"name":"Tyavanige","pincode":577544,"officetype":"B.O","divisionname":"Shimoga","regionname":"South Karnataka","taluk":"Channagiri","district":"Davangere"},"geometry":{"type":"Point","coordinates":[75.8860839,14.2499818]}},{"type":"Feature","properties":{"name":"Huliyaru","pincode":572218,"officetype":"B.O","divisionname":"Tumkur","regionname":"South Karnataka","taluk":"C.n.halli","district":"Tumkur"},"geometry":{"type":"Point","coordinates":[76.5416593,13.5849337]}},{"type":"Feature","properties":{"name":"Kunigal","pincode":572130,"officetype":"B.O","divisionname":"Tumkur","regionname":"South Karnataka","taluk":"Kunigal","district":"Tumkur"},"geometry":{"type":"Point","coordinates":[77.0236705,13.0238782]}},{"type":"Feature","properties":{"name":"Pavagada","pincode":561202,"officetype":"B.O","divisionname":"Tumkur","regionname":"South Karnataka","taluk":"Pavagada","district":"Tumkur"},"geometry":{"type":"Point","coordinates":[77.2800053,14.1007288]}},{"type":"Feature","properties":{"name":"Badavanahalli","pincode":572112,"officetype":"B.O","divisionname":"Tumkur","regionname":"South Karnataka","taluk":"Madhugiri","district":"Tumkur"},"geometry":{"type":"Point","coordinates":[77.0667006,13.6756456]}},{"type":"Feature","properties":{"name":"Sira","pincode":572137,"officetype":"B.O","divisionname":"Tumkur","regionname":"South Karnataka","taluk":"Sira","district":"Tumkur"},"geometry":{"type":"Point","coordinates":[76.905738,13.7409467]}},{"type":"Feature","properties":{"name":"Kodigenahalli","pincode":572127,"officetype":"B.O","divisionname":"Tumkur","regionname":"South Karnataka","taluk":"Madhugiri","district":"Tumkur"},"geometry":{"type":"Point","coordinates":[77.3859542,13.7203304]}},{"type":"Feature","properties":{"name":"Kallambella","pincode":572125,"officetype":"B.O","divisionname":"Tumkur","regionname":"South Karnataka","taluk":"Sira","district":"Tumkur"},"geometry":{"type":"Point","coordinates":[76.9239342,13.6313999]}},{"type":"Feature","properties":{"name":"Gubbi","pincode":572216,"officetype":"B.O","divisionname":"Tumkur","regionname":"South Karnataka","taluk":"Gubbi","district":"Tumkur"},"geometry":{"type":"Point","coordinates":[76.9402651,13.3092916]}},{"type":"Feature","properties":{"name":"Koratagere","pincode":572129,"officetype":"B.O","divisionname":"Tumkur","regionname":"South Karnataka","taluk":"Koratagere","district":"Tumkur"},"geometry":{"type":"Point","coordinates":[77.2358911,13.5215422]}},{"type":"Feature","properties":{"name":"Guluru","pincode":572118,"officetype":"B.O","divisionname":"Tumkur","regionname":"South Karnataka","taluk":"Tumkur","district":"Tumkur"},"geometry":{"type":"Point","coordinates":[77.0925799,13.2929565]}},{"type":"Feature","properties":{"name":"Mayasandra","pincode":572221,"officetype":"B.O","divisionname":"Tumkur","regionname":"South Karnataka","taluk":"Turuvekere","district":"Tumkur"},"geometry":{"type":"Point","coordinates":[76.7557088,13.0792918]}},{"type":"Feature","properties":{"name":"Madhugiri","pincode":572132,"officetype":"B.O","divisionname":"Tumkur","regionname":"South Karnataka","taluk":"Madhugiri","district":"Tumkur"},"geometry":{"type":"Point","coordinates":[77.2140882,13.6601789]}},{"type":"Feature","properties":{"name":"Hebburu","pincode":572120,"officetype":"B.O","divisionname":"Tumkur","regionname":"South Karnataka","taluk":"Tumkur","district":"Tumkur"},"geometry":{"type":"Point","coordinates":[77.0333844,13.1539112]}},{"type":"Feature","properties":{"name":"Chikkanayakanahalli","pincode":572214,"officetype":"B.O","divisionname":"Tumkur","regionname":"South Karnataka","taluk":"C.n.hally","district":"Tumkur"},"geometry":{"type":"Point","coordinates":[76.6209481,13.4149285]}},{"type":"Feature","properties":{"name":"Yadiyuru","pincode":572142,"officetype":"B.O","divisionname":"Tumkur","regionname":"South Karnataka","taluk":"Kunigal","district":"Tumkur"},"geometry":{"type":"Point","coordinates":[76.8614233,12.9767055]}},{"type":"Feature","properties":{"name":"Bukkapattana","pincode":572115,"officetype":"B.O","divisionname":"Tumkur","regionname":"South Karnataka","taluk":"Sira","district":"Tumkur"},"geometry":{"type":"Point","coordinates":[76.7482018,13.6519034]}},{"type":"Feature","properties":{"name":"Nitturu","pincode":572223,"officetype":"B.O","divisionname":"Tumkur","regionname":"South Karnataka","taluk":"Gubbi","district":"Tumkur"},"geometry":{"type":"Point","coordinates":[76.8620865,13.3205581]}},{"type":"Feature","properties":{"name":"Turuvekere","pincode":572227,"officetype":"B.O","divisionname":"Tumkur","regionname":"South Karnataka","taluk":"Turuvekere","district":"Tumkur"},"geometry":{"type":"Point","coordinates":[76.6672092,13.1647463]}},{"type":"Feature","properties":{"name":"Midigesi","pincode":572133,"officetype":"B.O","divisionname":"Tumkur","regionname":"South Karnataka","taluk":"Madhugiri","district":"Tumkur"},"geometry":{"type":"Point","coordinates":[77.2006265,13.8323524]}},{"type":"Feature","properties":{"name":"Perdoor","pincode":576124,"officetype":"B.O","divisionname":"Udupi","regionname":"South Karnataka","taluk":"Udupi","district":"Udupi"},"geometry":{"type":"Point","coordinates":[74.9029238,13.3846357]}},{"type":"Feature","properties":{"name":"Saligrama","pincode":576225,"officetype":"B.O","divisionname":"Udupi","regionname":"South Karnataka","taluk":"Udupi","district":"Udupi"},"geometry":{"type":"Point","coordinates":[74.7082725,13.503069]}},{"type":"Feature","properties":{"name":"Siddapur","pincode":576229,"officetype":"B.O","divisionname":"Udupi","regionname":"South Karnataka","taluk":"Kundapura","district":"Udupi"},"geometry":{"type":"Point","coordinates":[74.911019,13.6626885]}},{"type":"Feature","properties":{"name":"Udupi","pincode":576101,"officetype":"B.O","divisionname":"Udupi","regionname":"South Karnataka","taluk":"Udupi","district":"Udupi"},"geometry":{"type":"Point","coordinates":[74.7473232,13.3419169]}},{"type":"Feature","properties":{"name":"Shankaranarayana","pincode":576227,"officetype":"B.O","divisionname":"Udupi","regionname":"South Karnataka","taluk":"Kundapura","district":"Udupi"},"geometry":{"type":"Point","coordinates":[74.8600862,13.6058955]}},{"type":"Feature","properties":{"name":"Bainduru","pincode":576214,"officetype":"B.O","divisionname":"Udupi","regionname":"South Karnataka","taluk":"Kundapura","district":"Udupi"},"geometry":{"type":"Point","coordinates":[74.627772,13.8674658]}},{"type":"Feature","properties":{"name":"Navunda","pincode":576224,"officetype":"B.O","divisionname":"Udupi","regionname":"South Karnataka","taluk":"Navunda","district":"Udupi"},"geometry":{"type":"Point","coordinates":[74.6409895,13.745931]}},{"type":"Feature","properties":{"name":"Hosangadi","pincode":576282,"officetype":"B.O","divisionname":"Udupi","regionname":"South Karnataka","taluk":"Kundapura","district":"Udupi"},"geometry":{"type":"Point","coordinates":[74.9620769,13.7004565]}}]}
