{"type":"FeatureCollection","features":[{"type":"Feature","properties":{"name":"Bangalore G.P.O. ","pincode":560001,"officetype":"H.O","divisionname":"Bangalore GPO","regionname":"Bangalore HQ","taluk":"Bangalore North","district":"Bangalore"},"geometry":{"type":"Point","coordinates":[77.59575,12.98094]}},{"type":"Feature","properties":{"name":"Basavanagudi H.O","pincode":560004,"officetype":"H.O","divisionname":"Bangalore South","regionname":"Bangalore HQ","taluk":"Bangalore South","district":"Bangalore"},"geometry":{"type":"Point","coordinates":[77.5740606,12.9447608]}},{"type":"Feature","properties":{"name":"H.A.L II Stage H.O","pincode":560008,"officetype":"H.O","divisionname":"Bangalore East","regionname":"Bangalore HQ","taluk":"Bangalore North","district":"Bangalore"},"geometry":{"type":"Point","coordinates":[77.64251,12.96841]}},{"type":"Feature","properties":{"name":"Rajajinagar H.O","pincode":560010,"officetype":"H.O","divisionname":"Bangalore West","regionname":"Bangalore HQ","taluk":"Bangalore North","district":"Bangalore"},"geometry":{"type":"Point","coordinates":[77.55435,12.9934]}},{"type":"Feature","properties":{"name":"Jalahalli H.O","pincode":560013,"officetype":"H.O","divisionname":"Bangalore West","regionname":"Bangalore HQ","taluk":"Bangalore North","district":"Bangalore"},"geometry":{"type":"Point","coordinates":[77.5531101,13.0508316]}},{"type":"Feature","properties":{"name":"R T Nagar H.O","pincode":560032,"officetype":"H.O","divisionname":"Bangalore East","regionname":"Bangalore HQ","taluk":"Bangalore North","district":"Bangalore"},"geometry":{"type":"Point","coordinates":[77.5925991,13.02244]}},{"type":"Feature","properties":{"name":"Jayanagar H.O","pincode":560041,"officetype":"H.O","divisionname":"Bangalore South","regionname":"Bangalore HQ","taluk":"Bangalore South","district":"Bangalore"},"geometry":{"type":"Point","coordinates":[77.5860466,12.9238628]}},{"type":"Feature","properties":{"name":"Chickballapur H.O","pincode":562101,"officetype":"H.O","divisionname":"Kolar","regionname":"South Karnataka","taluk":"Chickballapur","district":"Chikkaballapur"},"geometry":{"type":"Point","coordinates":[77.7306866,13.4352549]}},{"type":"Feature","properties":{"name":"Channapatna H.O","pincode":562160,"officetype":"H.O","divisionname":"Channapatna","regionname":"Bangalore HQ","taluk":"Channapatna","district":"Ramanagar"},"geometry":{"type":"Point","coordinates":[77.2049,12.6548]}},{"type":"Feature","properties":{"name":"Kolar H.O","pincode":563101,"officetype":"H.O","divisionname":"Kolar","regionname":"South Karnataka","taluk":"Kolar","district":"Kolar"},"geometry":{"type":"Point","coordinates":[78.1339474,13.1370897]}},{"type":"Feature","properties":{"name":"Mysore H.O","pincode":570001,"officetype":"H.O","divisionname":"Mysore","regionname":"South Karnataka","taluk":"Mysore","district":"Mysore"},"geometry":{"type":"Point","coordinates":[76.6567376,12.3138549]}},{"type":"Feature","properties":{"name":"Saraswathipuram H.O","pincode":570009,"officetype":"H.O","divisionname":"Mysore","regionname":"South Karnataka","taluk":"Mysore","district":"Mysore"},"geometry":{"type":"Point","coordinates":[76.63494,12.30391]}},{"type":"Feature","properties":{"name":"Madikeri H.O","pincode":571201,"officetype":"H.O","divisionname":"Kodagu","regionname":"South Karnataka","taluk":"Madikeri","district":"Kodagu"},"geometry":{"type":"Point","coordinates":[75.7402226,12.42227]}},{"type":"Feature","properties":{"name":"Nanjangud H.O","pincode":571301,"officetype":"H.O","divisionname":"Nanjangud","regionname":"South Karnataka","taluk":"Nanjangud","district":"Mysore"},"geometry":{"type":"Point","coordinates":[76.6817502,12.1186851]}},{"type":"Feature","properties":{"name":"Mandya H.O","pincode":571401,"officetype":"H.O","divisionname":"Mandya","regionname":"South Karnataka","taluk":"Mandya","district":"Mandya"},"geometry":{"type":"Point","coordinates":[76.88854,12.52744]}},{"type":"Feature","properties":{"name":"Srirangapatna H.O","pincode":571438,"officetype":"H.O","divisionname":"Mandya","regionname":"South Karnataka","taluk":"Srirangapatna","district":"Mandya"},"geometry":{"type":"Point","coordinates":[76.6850743,12.4225604]}},{"type":"Feature","properties":{"name":"Kollegal H.O","pincode":571440,"officetype":"H.O","divisionname":"Nanjangud","regionname":"South Karnataka","taluk":"Kollegal","district":"Chamrajnagar"},"geometry":{"type":"Point","coordinates":[77.1114856,12.1548275]}},{"type":"Feature","properties":{"name":"Tumkur H.O","pincode":572101,"officetype":"H.O","divisionname":"Tumkur","regionname":"South Karnataka","taluk":"Tumkur","district":"Tumkur"},"geometry":{"type":"Point","coordinates":[77.1006208,13.3400771]}},{"type":"Feature","properties":{"name":"Tiptur H.O","pincode":572201,"officetype":"H.O","divisionname":"Tumkur","regionname":"South Karnataka","taluk":"Tiptur","district":"Tumkur"},"geometry":{"type":"Point","coordinates":[76.4724264,13.2594418]}},{"type":"Feature","properties":{"name":"Arsikere H.O","pincode":573103,"officetype":"H.O","divisionname":"Hassan","regionname":"South Karnataka","taluk":"Arsikere","district":"Hassan"},"geometry":{"type":"Point","coordinates":[76.2568436,13.3159809]}},{"type":"Feature","properties":{"name":"Hassan H.O","pincode":573201,"officetype":"H.O","divisionname":"Hassan","regionname":"South Karnataka","taluk":"Hassan","district":"Hassan"},"geometry":{"type":"Point","coordinates":[76.0999055,13.0006847]}},{"type":"Feature","properties":{"name":"Karkala H.O","pincode":574104,"officetype":"H.O","divisionname":"Puttur","regionname":"South Karnataka","taluk":"Karkala","district":"Udupi"},"geometry":{"type":"Point","coordinates":[74.9959586,13.2112826]}},{"type":"Feature","properties":{"name":"Puttur(D.K.) H.O","pincode":574201,"officetype":"H.O","divisionname":"Puttur","regionname":"South Karnataka","taluk":"Puttur","district":"Dakshina Kannada"},"geometry":{"type":"Point","coordinates":[75.1971,12.7641]}},{"type":"Feature","properties":{"name":"Mangalore H.O","pincode":575001,"officetype":"H.O","divisionname":"Mangalore","regionname":"South Karnataka","taluk":"Mangalore","district":"Dakshina Kannada"},"geometry":{"type":"Point","coordinates":[74.8430082,12.8698101]}},{"type":"Feature","properties":{"name":"Kulshekar H.O","pincode":575005,"officetype":"H.O","divisionname":"Mangalore","regionname":"South Karnataka","taluk":"Mangalore","district":"Dakshina Kannada"},"geometry":{"type":"Point","coordinates":[74.84411,12.86923]}},{"type":"Feature","properties":{"name":"Udupi H.O","pincode":576101,"officetype":"H.O","divisionname":"Udupi","regionname":"South Karnataka","taluk":"Udupi","district":"Udupi"},"geometry":{"type":"Point","coordinates":[74.7473232,13.3419169]}},{"type":"Feature","properties":{"name":"Manipal H.O","pincode":576104,"officetype":"H.O","divisionname":"Udupi","regionname":"South Karnataka","taluk":"Udupi","district":"Udupi"},"geometry":{"type":"Point","coordinates":[74.7859011,13.34892]}},{"type":"Feature","properties":{"name":"Kundapura H.O","pincode":576201,"officetype":"H.O","divisionname":"Udupi","regionname":"South Karnataka","taluk":"Udupi","district":"Udupi"},"geometry":{"type":"Point","coordinates":[74.6918394,13.6240607]}},{"type":"Feature","properties":{"name":"Davangere H.O","pincode":577001,"officetype":"H.O","divisionname":"Chitradurga","regionname":"South Karnataka","taluk":"Davangere","district":"Davangere"},"geometry":{"type":"Point","coordinates":[75.9206361,14.4661266]}},{"type":"Feature","properties":{"name":"Chikmagalur H.O","pincode":577101,"officetype":"H.O","divisionname":"Chikmagalur","regionname":"South Karnataka","taluk":"Chikmagalur","district":"Chickmagalur"},"geometry":{"type":"Point","coordinates":[75.7738743,13.318014]}},{"type":"Feature","properties":{"name":"Koppa H.O","pincode":577126,"officetype":"H.O","divisionname":"Chikmagalur","regionname":"South Karnataka","taluk":"Koppa","district":"Chickmagalur"},"geometry":{"type":"Point","coordinates":[75.36035,13.53444]}},{"type":"Feature","properties":{"name":"Shimoga H.O","pincode":577201,"officetype":"H.O","divisionname":"Shimoga","regionname":"South Karnataka","taluk":"Shimoga","district":"Shimoga"},"geometry":{"type":"Point","coordinates":[75.569737,13.9311723]}},{"type":"Feature","properties":{"name":"Bhadravati H.O","pincode":577301,"officetype":"H.O","divisionname":"Shimoga","regionname":"South Karnataka","taluk":"Bhadravati","district":"Shimoga"},"geometry":{"type":"Point","coordinates":[75.7030138,13.8474574]}},{"type":"Feature","properties":{"name":"Sagar H.O","pincode":577401,"officetype":"H.O","divisionname":"Shimoga","regionname":"South Karnataka","taluk":"Sagar","district":"Shimoga"},"geometry":{"type":"Point","coordinates":[75.0262551,14.1666594]}},{"type":"Feature","properties":{"name":"Chitradurga H.O","pincode":577501,"officetype":"H.O","divisionname":"Chitradurga","regionname":"South Karnataka","taluk":"Chitradurga","district":"Chitradurga"},"geometry":{"type":"Point","coordinates":[76.4005122,14.2266443]}},{"type":"Feature","properties":{"name":"Dharwad H.O","pincode":580001,"officetype":"H.O","divisionname":"Dharwad","regionname":"North Karnataka","taluk":"Dharwad","district":"Dharwad"},"geometry":{"type":"Point","coordinates":[75.0066516,15.4540505]}},{"type":"Feature","properties":{"name":"Hubli H.O","pincode":580020,"officetype":"H.O","divisionname":"Dharwad","regionname":"North Karnataka","taluk":"Hubli","district":"Dharwad"},"geometry":{"type":"Point","coordinates":[75.1379848,15.3518378]}},{"type":"Feature","properties":{"name":"Haveri H.O","pincode":581110,"officetype":"H.O","divisionname":"Haveri","regionname":"North Karnataka","taluk":"Haveri","district":"Haveri"},"geometry":{"type":"Point","coordinates":[75.4035296,14.7897512]}},{"type":"Feature","properties":{"name":"Karwar H.O","pincode":581301,"officetype":"H.O","divisionname":"Karwar","regionname":"North Karnataka","taluk":"Karwar","district":"Uttara Kannada"},"geometry":{"type":"Point","coordinates":[74.1319229,14.8120931]}},{"type":"Feature","properties":{"name":"Kumta H.O","pincode":581343,"officetype":"H.O","divisionname":"Karwar","regionname":"North Karnataka","taluk":"Kumta","district":"Uttara Kannada"},"geometry":{"type":"Point","coordinates":[74.4104,14.42627]}},{"type":"Feature","properties":{"name":"Sirsi H.O","pincode":581401,"officetype":"H.O","divisionname":"Sirsi","regionname":"North Karnataka","taluk":"Sirsi","district":"Uttara Kannada"},"geometry":{"type":"Point","coordinates":[74.8350192,14.6176591]}},{"type":"Feature","properties":{"name":"Gadag H.O","pincode":582101,"officetype":"H.O","divisionname":"Gadag","regionname":"North Karnataka","taluk":"Gadag","district":"Gadag"},"geometry":{"type":"Point","coordinates":[75.6300786,15.4263647]}},{"type":"Feature","properties":{"name":"Bellary H.O","pincode":583101,"officetype":"H.O","divisionname":"Bellary","regionname":"North Karnataka","taluk":"Bellary","district":"Bellary"},"geometry":{"type":"Point","coordinates":[76.9157943,15.1463848]}},{"type":"Feature","properties":{"name":"Hospet H.O","pincode":583201,"officetype":"H.O","divisionname":"Bellary","regionname":"North Karnataka","taluk":"Hospet","district":"Bellary"},"geometry":{"type":"Point","coordinates":[76.3870527,15.266079]}},{"type":"Feature","properties":{"name":"Koppal H.O","pincode":583231,"officetype":"H.O","divisionname":"Gadag","regionname":"North Karnataka","taluk":"Koppal","district":"Koppal"},"geometry":{"type":"Point","coordinates":[76.1547421,15.3484144]}},{"type":"Feature","properties":{"name":"Raichur H.O","pincode":584101,"officetype":"H.O","divisionname":"Raichur","regionname":"North Karnataka","taluk":"Raichur","district":"Raichur"},"geometry":{"type":"Point","coordinates":[77.3568535,16.2024951]}},{"type":"Feature","properties":{"name":"Gulbarga H.O","pincode":585101,"officetype":"H.O","divisionname":"Gulbarga","regionname":"North Karnataka","taluk":"Gulbarga","district":"Gulbarga"},"geometry":{"type":"Point","coordinates":[76.8334228,17.3310003]}},{"type":"Feature","properties":{"name":"Yadgiri H.O","pincode":585201,"officetype":"H.O","divisionname":"Gulbarga","regionname":"North Karnataka","taluk":"Yadgiri","district":"Yadgir"},"geometry":{"type":"Point","coordinates":[77.1380381,16.7689044]}},{"type":"Feature","properties":{"name":"Bidar H.O","pincode":585401,"officetype":"H.O","divisionname":"Bidar","regionname":"North Karnataka","taluk":"Bidar","district":"Bidar"},"geometry":{"type":"Point","coordinates":[77.5245329,17.9142593]}},{"type":"Feature","properties":{"name":"Bijapur H.O","pincode":586101,"officetype":"H.O","divisionname":"Bijapur","regionname":"North Karnataka","taluk":"Bijapur","district":"Bijapur(KAR)"},"geometry":{"type":"Point","coordinates":[75.7201051,16.8269245]}},{"type":"Feature","properties":{"name":"Bagalkot H.O","pincode":587101,"officetype":"H.O","divisionname":"Bagalkot","regionname":"North Karnataka","taluk":"Bagalkot","district":"Bagalkot"},"geometry":{"type":"Point","coordinates":[75.6999283,16.18139]}},{"type":"Feature","properties":{"name":"Jamkhandi H.O","pincode":587301,"officetype":"H.O","divisionname":"Bagalkot","regionname":"North Karnataka","taluk":"Jamkhandi","district":"Bagalkot"},"geometry":{"type":"Point","coordinates":[75.2893677,16.5023535]}},{"type":"Feature","properties":{"name":"Belgaum H.O","pincode":590001,"officetype":"H.O","divisionname":"Belgaum","regionname":"North Karnataka","taluk":"Belgaum","district":"Belgaum"},"geometry":{"type":"Point","coordinates":[74.5069343,15.8572666]}},{"type":"Feature","properties":{"name":"Bailhongal H.O","pincode":591102,"officetype":"H.O","divisionname":"Belgaum","regionname":"North Karnataka","taluk":"Bailhongal","district":"Belgaum"},"geometry":{"type":"Point","coordinates":[74.8585,15.8138]}},{"type":"Feature","properties":{"name":"Ramdurg H.O","pincode":591123,"officetype":"H.O","divisionname":"Belgaum","regionname":"North Karnataka","taluk":"Ramdurg","district":"Belgaum"},"geometry":{"type":"Point","coordinates":[75.2967797,15.94495]}},{"type":"Feature","properties":{"name":"Chikodi H.O","pincode":591201,"officetype":"H.O","divisionname":"Chikodi","regionname":"North Karnataka","taluk":"Chikodi","district":"Belgaum"},"geometry":{"type":"Point","coordinates":[74.5861323,16.4265276]}},{"type":"Feature","properties":{"name":"Athani H.O","pincode":591304,"officetype":"H.O","divisionname":"Chikodi","regionname":"North Karnataka","taluk":"Athani","district":"Belgaum"},"geometry":{"type":"Point","coordinates":[75.0648,16.72208]}},{"type":"Feature","properties":{"name":"Gokak H.O","pincode":591307,"officetype":"H.O","divisionname":"Gokak","regionname":"North Karnataka","taluk":"Gokak","district":"Belgaum"},"geometry":{"type":"Point","coordinates":[74.82244,16.1693]}}]}
